"Empl No",First,Last,MI,Street,City,State,Zip,Phone,Pager,DOH
E0001,Christopher,Thompson,B,Street 1,City 1,State 1,121111,,,
E0002,James,Smith,Z,Street 2,City 2,State 2,121112,,,
E0003,Mark,Smith,N,Street 3,City 3,State 3,121113,,,
E0004,Joseph,Davis,I,Street 4,City 4,State 4,121114,,,
E0005,Barbara,Johnson,L,Street 5,City 5,State 5,121115,,,
E0006,Charles,Robinson,Q,Street 6,City 6,State 6,121116,,,
E0007,Thomas,Thomas,F,Street 7,City 7,State 7,121117,,,
E0008,Mary,Jackson,I,Street 8,City 8,State 8,121118,,,
E0009,Patricia,Wilson,Z,Street 9,City 9,State 9,121119,,,
E0010,Charles,Garcia,M,Street 10,City 10,State 10,121110,,,
E0011,Thomas,Anderson,H,Street 11,City 11,State 11,121111,,,
E0012,Thomas,Anderson,J,Street 12,City 12,State 12,121112,,,
E0013,Thomas,Moore,J,Street 13,City 13,State 13,121113,,,
E0014,John,Martinez,Q,Street 14,City 14,State 14,121114,,,
E0015,Richard,White,S,Street 15,City 15,State 15,121115,,,
E0016,Paul,Johnson,R,Street 16,City 16,State 16,121116,,,
E0017,Joseph,Jackson,G,Street 17,City 17,State 17,121117,,,
E0018,Barbara,Thompson,W,Street 18,City 18,State 18,121118,,,
E0019,James,Moore,G,Street 19,City 19,State 19,121119,,,
E0020,James,Garcia,C,Street 20,City 20,State 20,121120,,,
E0021,Joseph,Wilson,P,Street 21,City 21,State 21,121121,,,
E0022,Daniel,Martinez,D,Street 22,City 22,State 22,121122,,,
E0023,Robert,Taylor,P,Street 23,City 23,State 23,121123,,,
E0024,Thomas,Anderson,N,Street 24,City 24,State 24,121124,,,
E0025,Michael,Martinez,F,Street 25,City 25,State 25,121125,,,
E0026,Paul,Harris,H,Street 26,City 26,State 26,121126,,,
E0027,Thomas,Brown,W,Street 27,City 27,State 27,121127,,,
E0028,Daniel,Martinez,S,Street 28,City 28,State 28,121128,,,
E0029,Christopher,Robinson,E,Street 29,City 29,State 29,121129,,,
E0030,Mark,Robinson,A,Street 30,City 30,State 30,121130,,,
E0031,Jennifer,Taylor,K,Street 31,City 31,State 31,121131,,,
E0032,Patricia,Brown,I,Street 32,City 32,State 32,121132,,,
E0033,Barbara,Wilson,V,Street 33,City 33,State 33,121133,,,
E0034,David,Garcia,I,Street 34,City 34,State 34,121134,,,
E0035,Paul,Smith,G,Street 35,City 35,State 35,121135,,,
E0036,James,Garcia,Z,Street 36,City 36,State 36,121136,,,
E0037,William,Moore,E,Street 37,City 37,State 37,121137,,,
E0038,Michael,Brown,C,Street 38,City 38,State 38,121138,,,
E0039,Elizabeth,Thompson,B,Street 39,City 39,State 39,121139,,,
E0040,John,Harris,A,Street 40,City 40,State 40,121140,,,
E0041,John,White,M,Street 41,City 41,State 41,121141,,,
E0042,Thomas,Brown,S,Street 42,City 42,State 42,121142,,,
E0043,Mark,Robinson,C,Street 43,City 43,State 43,121143,,,
E0044,Linda,Davis,A,Street 44,City 44,State 44,121144,,,
E0045,Jennifer,Johnson,B,Street 45,City 45,State 45,121145,,,
E0046,Mary,Williams,Y,Street 46,City 46,State 46,121146,,,
E0047,Michael,Wilson,K,Street 47,City 47,State 47,121147,,,
E0048,Richard,Thomas,P,Street 48,City 48,State 48,121148,,,
E0049,Joseph,Taylor,L,Street 49,City 49,State 49,121149,,,
E0050,Thomas,Anderson,D,Street 50,City 50,State 50,121150,,,
E0051,Thomas,Jackson,V,Street 51,City 51,State 51,121151,,,
E0052,James,Williams,B,Street 52,City 52,State 52,121152,,,
E0053,Daniel,Robinson,A,Street 53,City 53,State 53,121153,,,
E0054,Mark,White,H,Street 54,City 54,State 54,121154,,,
E0055,Mark,White,J,Street 55,City 55,State 55,121155,,,
E0056,Elizabeth,Garcia,M,Street 56,City 56,State 56,121156,,,
E0057,Mark,Johnson,W,Street 57,City 57,State 57,121157,,,
E0058,William,Moore,L,Street 58,City 58,State 58,121158,,,
E0059,Mark,Martinez,X,Street 59,City 59,State 59,121159,,,
E0060,William,Moore,L,Street 60,City 60,State 60,121160,,,
E0061,Charles,Robinson,C,Street 61,City 61,State 61,121161,,,
E0062,Mary,Smith,F,Street 62,City 62,State 62,121162,,,
E0063,David,Martin,F,Street 63,City 63,State 63,121163,,,
E0064,David,Jackson,W,Street 64,City 64,State 64,121164,,,
E0065,Christopher,Anderson,N,Street 65,City 65,State 65,121165,,,
E0066,Jennifer,Moore,K,Street 66,City 66,State 66,121166,,,
E0067,Joseph,Miller,M,Street 67,City 67,State 67,121167,,,
E0068,David,Jackson,Y,Street 68,City 68,State 68,121168,,,
E0069,Daniel,Taylor,V,Street 69,City 69,State 69,121169,,,
E0070,Barbara,Martin,G,Street 70,City 70,State 70,121170,,,
E0071,Robert,Jones,G,Street 71,City 71,State 71,121171,,,
E0072,Mary,Moore,G,Street 72,City 72,State 72,121172,,,
E0073,Charles,Harris,A,Street 73,City 73,State 73,121173,,,
E0074,Linda,Smith,Q,Street 74,City 74,State 74,121174,,,
E0075,Thomas,White,E,Street 75,City 75,State 75,121175,,,
E0076,John,White,P,Street 76,City 76,State 76,121176,,,
E0077,Joseph,Williams,Y,Street 77,City 77,State 77,121177,,,
E0078,Jennifer,Taylor,O,Street 78,City 78,State 78,121178,,,
E0079,Mark,Brown,A,Street 79,City 79,State 79,121179,,,
E0080,Barbara,Martinez,T,Street 80,City 80,State 80,121180,,,
E0081,Jennifer,Johnson,Y,Street 81,City 81,State 81,121181,,,
E0082,Mary,Miller,J,Street 82,City 82,State 82,121182,,,
E0083,Joseph,Martin,B,Street 83,City 83,State 83,121183,,,
E0084,Joseph,Moore,D,Street 84,City 84,State 84,121184,,,
E0085,Robert,Robinson,U,Street 85,City 85,State 85,121185,,,
E0086,William,Smith,L,Street 86,City 86,State 86,121186,,,
E0087,Elizabeth,Anderson,O,Street 87,City 87,State 87,121187,,,
E0088,Paul,Taylor,A,Street 88,City 88,State 88,121188,,,
E0089,Richard,Wilson,G,Street 89,City 89,State 89,121189,,,
E0090,Richard,Johnson,F,Street 90,City 90,State 90,121190,,,
E0091,Michael,Johnson,H,Street 91,City 91,State 91,121191,,,
E0092,John,Miller,P,Street 92,City 92,State 92,121192,,,
E0093,Charles,Martin,J,Street 93,City 93,State 93,121193,,,
E0094,Thomas,Davis,U,Street 94,City 94,State 94,121194,,,
E0095,Christopher,Moore,T,Street 95,City 95,State 95,121195,,,
E0096,Charles,Harris,U,Street 96,City 96,State 96,121196,,,
E0097,Paul,Jackson,H,Street 97,City 97,State 97,121197,,,
E0098,Richard,Taylor,U,Street 98,City 98,State 98,121198,,,
E0099,Richard,Thompson,D,Street 99,City 99,State 99,121199,,,
E0100,Christopher,Brown,G,Street 100,City 100,State 100,121100,,,
E0101,Paul,Wilson,I,Street 101,City 101,State 101,121101,,,
E0102,Robert,Taylor,Q,Street 102,City 102,State 102,121102,,,
E0103,Barbara,Martinez,K,Street 103,City 103,State 103,121103,,,
E0104,John,Moore,S,Street 104,City 104,State 104,121104,,,
E0105,Mark,Johnson,D,Street 105,City 105,State 105,121105,,,
E0106,Christopher,Taylor,W,Street 106,City 106,State 106,121106,,,
E0107,Charles,Miller,M,Street 107,City 107,State 107,121107,,,
E0108,Barbara,Harris,Y,Street 108,City 108,State 108,121108,,,
E0109,Joseph,Williams,U,Street 109,City 109,State 109,121109,,,
E0110,Christopher,Martin,A,Street 110,City 110,State 110,121110,,,
E0111,Mark,Jackson,K,Street 111,City 111,State 111,121111,,,
E0112,Michael,Harris,X,Street 112,City 112,State 112,121112,,,
E0113,Daniel,Taylor,V,Street 113,City 113,State 113,121113,,,
E0114,Mary,Thomas,H,Street 114,City 114,State 114,121114,,,
E0115,Elizabeth,Moore,J,Street 115,City 115,State 115,121115,,,
E0116,James,Johnson,W,Street 116,City 116,State 116,121116,,,
E0117,Mark,Taylor,E,Street 117,City 117,State 117,121117,,,
E0118,Richard,Jones,X,Street 118,City 118,State 118,121118,,,
E0119,David,White,A,Street 119,City 119,State 119,121119,,,
E0120,Robert,Davis,U,Street 120,City 120,State 120,121120,,,
E0121,Michael,Williams,K,Street 121,City 121,State 121,121121,,,
E0122,Patricia,Davis,D,Street 122,City 122,State 122,121122,,,
E0123,Joseph,Johnson,P,Street 123,City 123,State 123,121123,,,
E0124,David,Davis,E,Street 124,City 124,State 124,121124,,,
E0125,Patricia,Brown,P,Street 125,City 125,State 125,121125,,,
E0126,Elizabeth,Davis,R,Street 126,City 126,State 126,121126,,,
E0127,Daniel,Jones,D,Street 127,City 127,State 127,121127,,,
E0128,Jennifer,Anderson,I,Street 128,City 128,State 128,121128,,,
E0129,Mark,Garcia,Z,Street 129,City 129,State 129,121129,,,
E0130,Elizabeth,Robinson,G,Street 130,City 130,State 130,121130,,,
E0131,Barbara,Jones,J,Street 131,City 131,State 131,121131,,,
E0132,Robert,Harris,R,Street 132,City 132,State 132,121132,,,
E0133,William,Brown,T,Street 133,City 133,State 133,121133,,,
E0134,Mark,Anderson,B,Street 134,City 134,State 134,121134,,,
E0135,James,Williams,G,Street 135,City 135,State 135,121135,,,
E0136,Christopher,Smith,N,Street 136,City 136,State 136,121136,,,
E0137,William,Thompson,R,Street 137,City 137,State 137,121137,,,
E0138,Charles,Thompson,E,Street 138,City 138,State 138,121138,,,
E0139,Daniel,White,B,Street 139,City 139,State 139,121139,,,
E0140,Barbara,Jackson,B,Street 140,City 140,State 140,121140,,,
E0141,Jennifer,Miller,F,Street 141,City 141,State 141,121141,,,
E0142,Richard,Taylor,Y,Street 142,City 142,State 142,121142,,,
E0143,John,Martin,E,Street 143,City 143,State 143,121143,,,
E0144,Paul,White,S,Street 144,City 144,State 144,121144,,,
E0145,Mark,White,U,Street 145,City 145,State 145,121145,,,
E0146,Robert,Miller,W,Street 146,City 146,State 146,121146,,,
E0147,Christopher,Jackson,R,Street 147,City 147,State 147,121147,,,
E0148,William,Johnson,M,Street 148,City 148,State 148,121148,,,
E0149,Joseph,Thompson,E,Street 149,City 149,State 149,121149,,,
E0150,Thomas,Thomas,U,Street 150,City 150,State 150,121150,,,
E0151,Patricia,Thomas,D,Street 151,City 151,State 151,121151,,,
E0152,Daniel,Martinez,P,Street 152,City 152,State 152,121152,,,
E0153,Barbara,Robinson,J,Street 153,City 153,State 153,121153,,,
E0154,Mark,Thompson,A,Street 154,City 154,State 154,121154,,,
E0155,Patricia,White,T,Street 155,City 155,State 155,121155,,,
E0156,Richard,Martin,B,Street 156,City 156,State 156,121156,,,
E0157,Mary,Moore,S,Street 157,City 157,State 157,121157,,,
E0158,Elizabeth,White,T,Street 158,City 158,State 158,121158,,,
E0159,Richard,Jones,P,Street 159,City 159,State 159,121159,,,
E0160,Patricia,White,E,Street 160,City 160,State 160,121160,,,
E0161,David,Davis,S,Street 161,City 161,State 161,121161,,,
E0162,Joseph,Smith,R,Street 162,City 162,State 162,121162,,,
E0163,John,Martin,R,Street 163,City 163,State 163,121163,,,
E0164,Joseph,White,M,Street 164,City 164,State 164,121164,,,
E0165,Joseph,Davis,D,Street 165,City 165,State 165,121165,,,
E0166,Mary,White,Y,Street 166,City 166,State 166,121166,,,
E0167,William,Garcia,J,Street 167,City 167,State 167,121167,,,
E0168,Jennifer,Thompson,A,Street 168,City 168,State 168,121168,,,
E0169,Daniel,Brown,F,Street 169,City 169,State 169,121169,,,
E0170,David,Martin,W,Street 170,City 170,State 170,121170,,,
E0171,Thomas,Williams,D,Street 171,City 171,State 171,121171,,,
E0172,Mary,Thomas,E,Street 172,City 172,State 172,121172,,,
E0173,Elizabeth,White,Y,Street 173,City 173,State 173,121173,,,
E0174,Patricia,Williams,P,Street 174,City 174,State 174,121174,,,
E0175,John,Jackson,W,Street 175,City 175,State 175,121175,,,
E0176,Mary,Thompson,N,Street 176,City 176,State 176,121176,,,
E0177,Robert,Williams,K,Street 177,City 177,State 177,121177,,,
E0178,Joseph,Williams,F,Street 178,City 178,State 178,121178,,,
E0179,Thomas,Garcia,L,Street 179,City 179,State 179,121179,,,
E0180,Barbara,Brown,F,Street 180,City 180,State 180,121180,,,
E0181,Patricia,Harris,I,Street 181,City 181,State 181,121181,,,
E0182,Barbara,Robinson,X,Street 182,City 182,State 182,121182,,,
E0183,Mark,Garcia,O,Street 183,City 183,State 183,121183,,,
E0184,Paul,Moore,R,Street 184,City 184,State 184,121184,,,
E0185,Charles,Taylor,H,Street 185,City 185,State 185,121185,,,
E0186,William,White,D,Street 186,City 186,State 186,121186,,,
E0187,Daniel,Thompson,G,Street 187,City 187,State 187,121187,,,
E0188,Michael,Miller,J,Street 188,City 188,State 188,121188,,,
E0189,Richard,Thompson,F,Street 189,City 189,State 189,121189,,,
E0190,Paul,Thomas,L,Street 190,City 190,State 190,121190,,,
E0191,James,Williams,E,Street 191,City 191,State 191,121191,,,
E0192,Richard,Garcia,C,Street 192,City 192,State 192,121192,,,
E0193,William,Martin,Z,Street 193,City 193,State 193,121193,,,
E0194,Paul,Thomas,K,Street 194,City 194,State 194,121194,,,
E0195,Thomas,Smith,W,Street 195,City 195,State 195,121195,,,
E0196,Paul,Miller,O,Street 196,City 196,State 196,121196,,,
E0197,Jennifer,Johnson,K,Street 197,City 197,State 197,121197,,,
E0198,Mary,Davis,S,Street 198,City 198,State 198,121198,,,
E0199,Patricia,White,N,Street 199,City 199,State 199,121199,,,
E0200,Paul,Anderson,C,Street 200,City 200,State 200,121200,,,
E0201,William,Anderson,F,Street 201,City 201,State 201,121201,,,
E0202,Charles,Garcia,C,Street 202,City 202,State 202,121202,,,
E0203,Thomas,Jones,W,Street 203,City 203,State 203,121203,,,
E0204,Joseph,Smith,L,Street 204,City 204,State 204,121204,,,
E0205,Mark,Anderson,M,Street 205,City 205,State 205,121205,,,
E0206,Daniel,Wilson,U,Street 206,City 206,State 206,121206,,,
E0207,David,Miller,X,Street 207,City 207,State 207,121207,,,
E0208,Barbara,Thomas,E,Street 208,City 208,State 208,121208,,,
E0209,Charles,Jones,W,Street 209,City 209,State 209,121209,,,
E0210,Jennifer,Robinson,J,Street 210,City 210,State 210,121210,,,
E0211,John,Brown,X,Street 211,City 211,State 211,121211,,,
E0212,William,Jackson,U,Street 212,City 212,State 212,121212,,,
E0213,Richard,Williams,Y,Street 213,City 213,State 213,121213,,,
E0214,Mary,Jackson,Y,Street 214,City 214,State 214,121214,,,
E0215,Barbara,Anderson,N,Street 215,City 215,State 215,121215,,,
E0216,Michael,Davis,W,Street 216,City 216,State 216,121216,,,
E0217,Jennifer,Jackson,F,Street 217,City 217,State 217,121217,,,
E0218,Mark,Wilson,U,Street 218,City 218,State 218,121218,,,
E0219,John,Martin,Y,Street 219,City 219,State 219,121219,,,
E0220,Elizabeth,Martin,X,Street 220,City 220,State 220,121220,,,
E0221,William,Thompson,D,Street 221,City 221,State 221,121221,,,
E0222,Michael,Johnson,T,Street 222,City 222,State 222,121222,,,
E0223,Elizabeth,Taylor,X,Street 223,City 223,State 223,121223,,,
E0224,Mark,Harris,O,Street 224,City 224,State 224,121224,,,
E0225,Mark,Moore,B,Street 225,City 225,State 225,121225,,,
E0226,Richard,Jackson,J,Street 226,City 226,State 226,121226,,,
E0227,Mary,Jackson,Z,Street 227,City 227,State 227,121227,,,
E0228,Joseph,Taylor,J,Street 228,City 228,State 228,121228,,,
E0229,William,Thomas,D,Street 229,City 229,State 229,121229,,,
E0230,Michael,Taylor,X,Street 230,City 230,State 230,121230,,,
E0231,Robert,Harris,S,Street 231,City 231,State 231,121231,,,
E0232,Mary,Garcia,U,Street 232,City 232,State 232,121232,,,
E0233,James,Thompson,H,Street 233,City 233,State 233,121233,,,
E0234,Elizabeth,Harris,Z,Street 234,City 234,State 234,121234,,,
E0235,Joseph,Thomas,K,Street 235,City 235,State 235,121235,,,
E0236,Thomas,Martinez,B,Street 236,City 236,State 236,121236,,,
E0237,Elizabeth,Jones,Q,Street 237,City 237,State 237,121237,,,
E0238,Mark,Jackson,D,Street 238,City 238,State 238,121238,,,
E0239,William,Garcia,S,Street 239,City 239,State 239,121239,,,
E0240,Richard,Johnson,E,Street 240,City 240,State 240,121240,,,
E0241,David,Jones,X,Street 241,City 241,State 241,121241,,,
E0242,James,Moore,U,Street 242,City 242,State 242,121242,,,
E0243,Paul,Moore,P,Street 243,City 243,State 243,121243,,,
E0244,John,Wilson,I,Street 244,City 244,State 244,121244,,,
E0245,John,Thompson,X,Street 245,City 245,State 245,121245,,,
E0246,Thomas,Wilson,V,Street 246,City 246,State 246,121246,,,
E0247,Thomas,Davis,A,Street 247,City 247,State 247,121247,,,
E0248,Michael,Jones,Q,Street 248,City 248,State 248,121248,,,
E0249,David,Moore,N,Street 249,City 249,State 249,121249,,,
E0250,John,Thompson,P,Street 250,City 250,State 250,121250,,,
E0251,Mary,Williams,T,Street 251,City 251,State 251,121251,,,
E0252,Robert,Williams,F,Street 252,City 252,State 252,121252,,,
E0253,Elizabeth,Robinson,Q,Street 253,City 253,State 253,121253,,,
E0254,Thomas,Smith,A,Street 254,City 254,State 254,121254,,,
E0255,Mark,Williams,V,Street 255,City 255,State 255,121255,,,
E0256,Daniel,Jackson,F,Street 256,City 256,State 256,121256,,,
E0257,Patricia,Jones,M,Street 257,City 257,State 257,121257,,,
E0258,Patricia,Wilson,Q,Street 258,City 258,State 258,121258,,,
E0259,Mary,Harris,B,Street 259,City 259,State 259,121259,,,
E0260,Barbara,Martin,W,Street 260,City 260,State 260,121260,,,
E0261,David,Smith,A,Street 261,City 261,State 261,121261,,,
E0262,John,Williams,D,Street 262,City 262,State 262,121262,,,
E0263,William,Johnson,C,Street 263,City 263,State 263,121263,,,
E0264,Elizabeth,Thomas,D,Street 264,City 264,State 264,121264,,,
E0265,Elizabeth,Moore,H,Street 265,City 265,State 265,121265,,,
E0266,Daniel,Jones,Y,Street 266,City 266,State 266,121266,,,
E0267,Jennifer,Martin,C,Street 267,City 267,State 267,121267,,,
E0268,Joseph,Wilson,M,Street 268,City 268,State 268,121268,,,
E0269,Robert,Jackson,F,Street 269,City 269,State 269,121269,,,
E0270,Michael,Miller,A,Street 270,City 270,State 270,121270,,,
E0271,John,White,A,Street 271,City 271,State 271,121271,,,
E0272,John,Harris,E,Street 272,City 272,State 272,121272,,,
E0273,Mary,Smith,G,Street 273,City 273,State 273,121273,,,
E0274,David,Robinson,V,Street 274,City 274,State 274,121274,,,
E0275,Joseph,Martinez,G,Street 275,City 275,State 275,121275,,,
E0276,Barbara,White,L,Street 276,City 276,State 276,121276,,,
E0277,Linda,White,G,Street 277,City 277,State 277,121277,,,
E0278,Daniel,Williams,Q,Street 278,City 278,State 278,121278,,,
E0279,William,Davis,F,Street 279,City 279,State 279,121279,,,
E0280,Thomas,Moore,O,Street 280,City 280,State 280,121280,,,
E0281,Thomas,Anderson,F,Street 281,City 281,State 281,121281,,,
E0282,Patricia,Thomas,Z,Street 282,City 282,State 282,121282,,,
E0283,Barbara,Martin,A,Street 283,City 283,State 283,121283,,,
E0284,Jennifer,Johnson,Z,Street 284,City 284,State 284,121284,,,
E0285,Paul,Anderson,X,Street 285,City 285,State 285,121285,,,
E0286,John,Davis,O,Street 286,City 286,State 286,121286,,,
E0287,Thomas,Martinez,G,Street 287,City 287,State 287,121287,,,
E0288,Daniel,Harris,K,Street 288,City 288,State 288,121288,,,
E0289,Richard,Robinson,Q,Street 289,City 289,State 289,121289,,,
E0290,Christopher,Taylor,C,Street 290,City 290,State 290,121290,,,
E0291,Michael,Smith,P,Street 291,City 291,State 291,121291,,,
E0292,Charles,Thomas,E,Street 292,City 292,State 292,121292,,,
E0293,Richard,Miller,Y,Street 293,City 293,State 293,121293,,,
E0294,Charles,Davis,A,Street 294,City 294,State 294,121294,,,
E0295,Richard,Williams,O,Street 295,City 295,State 295,121295,,,
E0296,William,Jones,V,Street 296,City 296,State 296,121296,,,
E0297,Mark,Harris,U,Street 297,City 297,State 297,121297,,,
E0298,Robert,Taylor,M,Street 298,City 298,State 298,121298,,,
E0299,Joseph,Garcia,M,Street 299,City 299,State 299,121299,,,
E0300,Robert,Taylor,Z,Street 300,City 300,State 300,121300,,,
E0301,Mary,Jackson,A,Street 301,City 301,State 301,121301,,,
E0302,Paul,Smith,O,Street 302,City 302,State 302,121302,,,
E0303,Jennifer,Moore,X,Street 303,City 303,State 303,121303,,,
E0304,Elizabeth,Thompson,E,Street 304,City 304,State 304,121304,,,
E0305,Elizabeth,Brown,H,Street 305,City 305,State 305,121305,,,
E0306,Joseph,Anderson,M,Street 306,City 306,State 306,121306,,,
E0307,David,Wilson,E,Street 307,City 307,State 307,121307,,,
E0308,Robert,Taylor,R,Street 308,City 308,State 308,121308,,,
E0309,Christopher,Robinson,N,Street 309,City 309,State 309,121309,,,
E0310,Robert,Williams,Z,Street 310,City 310,State 310,121310,,,
E0311,Robert,Miller,Q,Street 311,City 311,State 311,121311,,,
E0312,Robert,Williams,R,Street 312,City 312,State 312,121312,,,
E0313,Linda,Williams,D,Street 313,City 313,State 313,121313,,,
E0314,Patricia,Smith,Y,Street 314,City 314,State 314,121314,,,
E0315,Barbara,Martinez,E,Street 315,City 315,State 315,121315,,,
E0316,James,Moore,R,Street 316,City 316,State 316,121316,,,
E0317,Thomas,Martin,B,Street 317,City 317,State 317,121317,,,
E0318,Linda,Garcia,N,Street 318,City 318,State 318,121318,,,
E0319,David,Anderson,M,Street 319,City 319,State 319,121319,,,
E0320,Mark,Jackson,P,Street 320,City 320,State 320,121320,,,
E0321,Mark,Harris,X,Street 321,City 321,State 321,121321,,,
E0322,Thomas,Thompson,B,Street 322,City 322,State 322,121322,,,
E0323,Mary,Anderson,D,Street 323,City 323,State 323,121323,,,
E0324,David,Johnson,D,Street 324,City 324,State 324,121324,,,
E0325,William,Thompson,C,Street 325,City 325,State 325,121325,,,
E0326,Joseph,Garcia,N,Street 326,City 326,State 326,121326,,,
E0327,Michael,Wilson,H,Street 327,City 327,State 327,121327,,,
E0328,Mary,Smith,E,Street 328,City 328,State 328,121328,,,
E0329,Barbara,Wilson,S,Street 329,City 329,State 329,121329,,,
E0330,Mary,Davis,I,Street 330,City 330,State 330,121330,,,
E0331,Daniel,Williams,B,Street 331,City 331,State 331,121331,,,
E0332,Linda,Jackson,X,Street 332,City 332,State 332,121332,,,
E0333,Barbara,Thompson,K,Street 333,City 333,State 333,121333,,,
E0334,Mark,Jones,M,Street 334,City 334,State 334,121334,,,
E0335,James,Taylor,I,Street 335,City 335,State 335,121335,,,
E0336,Robert,Martinez,E,Street 336,City 336,State 336,121336,,,
E0337,Christopher,Johnson,O,Street 337,City 337,State 337,121337,,,
E0338,Elizabeth,Miller,P,Street 338,City 338,State 338,121338,,,
E0339,Robert,Smith,Z,Street 339,City 339,State 339,121339,,,
E0340,Paul,Brown,G,Street 340,City 340,State 340,121340,,,
E0341,Michael,Smith,J,Street 341,City 341,State 341,121341,,,
E0342,Mary,White,A,Street 342,City 342,State 342,121342,,,
E0343,Robert,Moore,W,Street 343,City 343,State 343,121343,,,
E0344,Thomas,Davis,A,Street 344,City 344,State 344,121344,,,
E0345,James,Miller,M,Street 345,City 345,State 345,121345,,,
E0346,David,Moore,K,Street 346,City 346,State 346,121346,,,
E0347,Thomas,Johnson,M,Street 347,City 347,State 347,121347,,,
E0348,John,Robinson,U,Street 348,City 348,State 348,121348,,,
E0349,Linda,Johnson,V,Street 349,City 349,State 349,121349,,,
E0350,Linda,Martinez,B,Street 350,City 350,State 350,121350,,,
E0351,Elizabeth,Johnson,C,Street 351,City 351,State 351,121351,,,
E0352,William,Davis,U,Street 352,City 352,State 352,121352,,,
E0353,David,Moore,F,Street 353,City 353,State 353,121353,,,
E0354,Michael,Martinez,M,Street 354,City 354,State 354,121354,,,
E0355,Michael,Robinson,U,Street 355,City 355,State 355,121355,,,
E0356,Linda,Davis,F,Street 356,City 356,State 356,121356,,,
E0357,John,Thompson,G,Street 357,City 357,State 357,121357,,,
E0358,Patricia,Martinez,G,Street 358,City 358,State 358,121358,,,
E0359,Richard,Thomas,J,Street 359,City 359,State 359,121359,,,
E0360,Mary,Brown,H,Street 360,City 360,State 360,121360,,,
E0361,William,Jones,J,Street 361,City 361,State 361,121361,,,
E0362,David,Moore,Q,Street 362,City 362,State 362,121362,,,
E0363,Robert,Harris,B,Street 363,City 363,State 363,121363,,,
E0364,David,Martinez,Z,Street 364,City 364,State 364,121364,,,
E0365,Paul,Johnson,Y,Street 365,City 365,State 365,121365,,,
E0366,Christopher,Martin,G,Street 366,City 366,State 366,121366,,,
E0367,Paul,Thompson,B,Street 367,City 367,State 367,121367,,,
E0368,John,Moore,Z,Street 368,City 368,State 368,121368,,,
E0369,David,Martin,O,Street 369,City 369,State 369,121369,,,
E0370,Linda,Robinson,U,Street 370,City 370,State 370,121370,,,
E0371,Jennifer,Davis,Y,Street 371,City 371,State 371,121371,,,
E0372,David,Jackson,K,Street 372,City 372,State 372,121372,,,
E0373,Jennifer,Harris,D,Street 373,City 373,State 373,121373,,,
E0374,James,Smith,B,Street 374,City 374,State 374,121374,,,
E0375,James,Garcia,D,Street 375,City 375,State 375,121375,,,
E0376,Jennifer,Taylor,X,Street 376,City 376,State 376,121376,,,
E0377,Michael,Davis,T,Street 377,City 377,State 377,121377,,,
E0378,William,Wilson,E,Street 378,City 378,State 378,121378,,,
E0379,Mary,Harris,Y,Street 379,City 379,State 379,121379,,,
E0380,Daniel,Moore,Y,Street 380,City 380,State 380,121380,,,
E0381,Patricia,Wilson,F,Street 381,City 381,State 381,121381,,,
E0382,Thomas,White,U,Street 382,City 382,State 382,121382,,,
E0383,Elizabeth,White,N,Street 383,City 383,State 383,121383,,,
E0384,John,White,O,Street 384,City 384,State 384,121384,,,
E0385,Robert,White,K,Street 385,City 385,State 385,121385,,,
E0386,William,Jackson,W,Street 386,City 386,State 386,121386,,,
E0387,Mary,Thompson,E,Street 387,City 387,State 387,121387,,,
E0388,Jennifer,Johnson,O,Street 388,City 388,State 388,121388,,,
E0389,Robert,Miller,G,Street 389,City 389,State 389,121389,,,
E0390,John,Williams,R,Street 390,City 390,State 390,121390,,,
E0391,James,White,B,Street 391,City 391,State 391,121391,,,
E0392,Mary,Brown,T,Street 392,City 392,State 392,121392,,,
E0393,John,Jones,K,Street 393,City 393,State 393,121393,,,
E0394,Patricia,Brown,B,Street 394,City 394,State 394,121394,,,
E0395,Robert,Wilson,T,Street 395,City 395,State 395,121395,,,
E0396,Patricia,White,K,Street 396,City 396,State 396,121396,,,
E0397,Charles,Garcia,G,Street 397,City 397,State 397,121397,,,
E0398,Christopher,Thompson,I,Street 398,City 398,State 398,121398,,,
E0399,Robert,Robinson,R,Street 399,City 399,State 399,121399,,,
E0400,Charles,Smith,U,Street 400,City 400,State 400,121400,,,
E0401,John,Johnson,M,Street 401,City 401,State 401,121401,,,
E0402,Robert,Miller,S,Street 402,City 402,State 402,121402,,,
E0403,Mark,Wilson,W,Street 403,City 403,State 403,121403,,,
E0404,William,Robinson,C,Street 404,City 404,State 404,121404,,,
E0405,Richard,Williams,M,Street 405,City 405,State 405,121405,,,
E0406,Robert,White,D,Street 406,City 406,State 406,121406,,,
E0407,Thomas,Williams,Z,Street 407,City 407,State 407,121407,,,
E0408,Daniel,Harris,U,Street 408,City 408,State 408,121408,,,
E0409,Robert,Garcia,T,Street 409,City 409,State 409,121409,,,
E0410,Daniel,Davis,U,Street 410,City 410,State 410,121410,,,
E0411,Patricia,Wilson,W,Street 411,City 411,State 411,121411,,,
E0412,John,Anderson,F,Street 412,City 412,State 412,121412,,,
E0413,Daniel,Wilson,P,Street 413,City 413,State 413,121413,,,
E0414,Christopher,White,P,Street 414,City 414,State 414,121414,,,
E0415,Barbara,Smith,S,Street 415,City 415,State 415,121415,,,
E0416,Michael,Jones,K,Street 416,City 416,State 416,121416,,,
E0417,William,White,N,Street 417,City 417,State 417,121417,,,
E0418,William,Taylor,G,Street 418,City 418,State 418,121418,,,
E0419,John,Thomas,D,Street 419,City 419,State 419,121419,,,
E0420,Paul,Wilson,K,Street 420,City 420,State 420,121420,,,
E0421,Patricia,Robinson,T,Street 421,City 421,State 421,121421,,,
E0422,Joseph,Smith,G,Street 422,City 422,State 422,121422,,,
E0423,Linda,Martin,R,Street 423,City 423,State 423,121423,,,
E0424,David,Moore,I,Street 424,City 424,State 424,121424,,,
E0425,Mark,Williams,J,Street 425,City 425,State 425,121425,,,
E0426,Christopher,Miller,O,Street 426,City 426,State 426,121426,,,
E0427,James,Jackson,G,Street 427,City 427,State 427,121427,,,
E0428,Thomas,Garcia,S,Street 428,City 428,State 428,121428,,,
E0429,Paul,Martinez,H,Street 429,City 429,State 429,121429,,,
E0430,Elizabeth,Harris,S,Street 430,City 430,State 430,121430,,,
E0431,David,Miller,R,Street 431,City 431,State 431,121431,,,
E0432,Robert,Martin,S,Street 432,City 432,State 432,121432,,,
E0433,Richard,Taylor,N,Street 433,City 433,State 433,121433,,,
E0434,James,Martin,X,Street 434,City 434,State 434,121434,,,
E0435,Richard,White,B,Street 435,City 435,State 435,121435,,,
E0436,Barbara,Davis,J,Street 436,City 436,State 436,121436,,,
E0437,William,Miller,Y,Street 437,City 437,State 437,121437,,,
E0438,Thomas,Garcia,V,Street 438,City 438,State 438,121438,,,
E0439,Mary,White,T,Street 439,City 439,State 439,121439,,,
E0440,Thomas,Thomas,N,Street 440,City 440,State 440,121440,,,
E0441,Mary,Martinez,V,Street 441,City 441,State 441,121441,,,
E0442,Elizabeth,Smith,Q,Street 442,City 442,State 442,121442,,,
E0443,Christopher,Moore,C,Street 443,City 443,State 443,121443,,,
E0444,Robert,Moore,X,Street 444,City 444,State 444,121444,,,
E0445,James,Martin,O,Street 445,City 445,State 445,121445,,,
E0446,John,Anderson,W,Street 446,City 446,State 446,121446,,,
E0447,Charles,Thompson,E,Street 447,City 447,State 447,121447,,,
E0448,Richard,Miller,A,Street 448,City 448,State 448,121448,,,
E0449,Mary,Thomas,R,Street 449,City 449,State 449,121449,,,
E0450,James,Johnson,G,Street 450,City 450,State 450,121450,,,
E0451,Thomas,Miller,E,Street 451,City 451,State 451,121451,,,
E0452,David,Brown,F,Street 452,City 452,State 452,121452,,,
E0453,Jennifer,Garcia,Q,Street 453,City 453,State 453,121453,,,
E0454,John,Robinson,B,Street 454,City 454,State 454,121454,,,
E0455,Elizabeth,Smith,W,Street 455,City 455,State 455,121455,,,
E0456,Thomas,Johnson,K,Street 456,City 456,State 456,121456,,,
E0457,Richard,Anderson,F,Street 457,City 457,State 457,121457,,,
E0458,Thomas,Martinez,O,Street 458,City 458,State 458,121458,,,
E0459,Patricia,Jones,C,Street 459,City 459,State 459,121459,,,
E0460,Mary,Jones,F,Street 460,City 460,State 460,121460,,,
E0461,Joseph,White,N,Street 461,City 461,State 461,121461,,,
E0462,Linda,Smith,T,Street 462,City 462,State 462,121462,,,
E0463,Elizabeth,Robinson,P,Street 463,City 463,State 463,121463,,,
E0464,Thomas,Smith,O,Street 464,City 464,State 464,121464,,,
E0465,Christopher,Robinson,P,Street 465,City 465,State 465,121465,,,
E0466,Joseph,Taylor,R,Street 466,City 466,State 466,121466,,,
E0467,Mark,Garcia,F,Street 467,City 467,State 467,121467,,,
E0468,John,Moore,D,Street 468,City 468,State 468,121468,,,
E0469,Christopher,Robinson,H,Street 469,City 469,State 469,121469,,,
E0470,Barbara,Brown,L,Street 470,City 470,State 470,121470,,,
E0471,Elizabeth,White,D,Street 471,City 471,State 471,121471,,,
E0472,Charles,Wilson,D,Street 472,City 472,State 472,121472,,,
E0473,Michael,Davis,C,Street 473,City 473,State 473,121473,,,
E0474,Daniel,Thompson,C,Street 474,City 474,State 474,121474,,,
E0475,Richard,Moore,B,Street 475,City 475,State 475,121475,,,
E0476,Jennifer,Martinez,N,Street 476,City 476,State 476,121476,,,
E0477,Christopher,Martin,K,Street 477,City 477,State 477,121477,,,
E0478,Paul,Thompson,U,Street 478,City 478,State 478,121478,,,
E0479,Jennifer,Taylor,T,Street 479,City 479,State 479,121479,,,
E0480,William,Jones,Z,Street 480,City 480,State 480,121480,,,
E0481,Barbara,Williams,R,Street 481,City 481,State 481,121481,,,
E0482,Paul,Anderson,B,Street 482,City 482,State 482,121482,,,
E0483,Jennifer,Harris,J,Street 483,City 483,State 483,121483,,,
E0484,John,Anderson,F,Street 484,City 484,State 484,121484,,,
E0485,Robert,Garcia,Q,Street 485,City 485,State 485,121485,,,
E0486,Mary,Thompson,O,Street 486,City 486,State 486,121486,,,
E0487,Barbara,Taylor,I,Street 487,City 487,State 487,121487,,,
E0488,Robert,Miller,E,Street 488,City 488,State 488,121488,,,
E0489,Elizabeth,Davis,Q,Street 489,City 489,State 489,121489,,,
E0490,Barbara,Anderson,V,Street 490,City 490,State 490,121490,,,
E0491,Linda,Davis,Y,Street 491,City 491,State 491,121491,,,
E0492,Richard,Johnson,M,Street 492,City 492,State 492,121492,,,
E0493,Charles,Johnson,F,Street 493,City 493,State 493,121493,,,
E0494,Daniel,Williams,S,Street 494,City 494,State 494,121494,,,
E0495,Jennifer,Davis,P,Street 495,City 495,State 495,121495,,,
E0496,Christopher,Taylor,L,Street 496,City 496,State 496,121496,,,
E0497,Michael,Brown,Y,Street 497,City 497,State 497,121497,,,
E0498,Joseph,Wilson,G,Street 498,City 498,State 498,121498,,,
E0499,Linda,Davis,N,Street 499,City 499,State 499,121499,,,
E0500,David,Smith,B,Street 500,City 500,State 500,121500,,,
E0501,Robert,White,I,Street 501,City 501,State 501,121501,,,
E0502,John,Smith,L,Street 502,City 502,State 502,121502,,,
E0503,Thomas,Taylor,M,Street 503,City 503,State 503,121503,,,
E0504,Barbara,Brown,P,Street 504,City 504,State 504,121504,,,
E0505,Joseph,Jones,W,Street 505,City 505,State 505,121505,,,
E0506,John,Thompson,I,Street 506,City 506,State 506,121506,,,
E0507,Thomas,Robinson,O,Street 507,City 507,State 507,121507,,,
E0508,Joseph,Taylor,X,Street 508,City 508,State 508,121508,,,
E0509,Barbara,Williams,F,Street 509,City 509,State 509,121509,,,
E0510,William,Moore,F,Street 510,City 510,State 510,121510,,,
E0511,David,Thomas,X,Street 511,City 511,State 511,121511,,,
E0512,Linda,White,Y,Street 512,City 512,State 512,121512,,,
E0513,John,Brown,K,Street 513,City 513,State 513,121513,,,
E0514,Patricia,Robinson,Q,Street 514,City 514,State 514,121514,,,
E0515,Michael,Moore,V,Street 515,City 515,State 515,121515,,,
E0516,James,Taylor,Q,Street 516,City 516,State 516,121516,,,
E0517,Richard,Smith,P,Street 517,City 517,State 517,121517,,,
E0518,Elizabeth,Taylor,C,Street 518,City 518,State 518,121518,,,
E0519,Paul,Brown,F,Street 519,City 519,State 519,121519,,,
E0520,Jennifer,Taylor,R,Street 520,City 520,State 520,121520,,,
E0521,Michael,Martin,G,Street 521,City 521,State 521,121521,,,
E0522,John,Taylor,Y,Street 522,City 522,State 522,121522,,,
E0523,James,Anderson,D,Street 523,City 523,State 523,121523,,,
E0524,Charles,Williams,C,Street 524,City 524,State 524,121524,,,
E0525,John,Davis,N,Street 525,City 525,State 525,121525,,,
E0526,Mark,Miller,Z,Street 526,City 526,State 526,121526,,,
E0527,Thomas,White,Z,Street 527,City 527,State 527,121527,,,
E0528,Michael,Thomas,M,Street 528,City 528,State 528,121528,,,
E0529,Mary,Wilson,R,Street 529,City 529,State 529,121529,,,
E0530,Joseph,Wilson,D,Street 530,City 530,State 530,121530,,,
E0531,Robert,Thomas,Y,Street 531,City 531,State 531,121531,,,
E0532,Richard,White,J,Street 532,City 532,State 532,121532,,,
E0533,David,Harris,X,Street 533,City 533,State 533,121533,,,
E0534,Charles,Williams,A,Street 534,City 534,State 534,121534,,,
E0535,Thomas,Brown,I,Street 535,City 535,State 535,121535,,,
E0536,James,Williams,Q,Street 536,City 536,State 536,121536,,,
E0537,James,White,I,Street 537,City 537,State 537,121537,,,
E0538,James,Thompson,X,Street 538,City 538,State 538,121538,,,
E0539,Joseph,Smith,H,Street 539,City 539,State 539,121539,,,
E0540,Michael,Anderson,R,Street 540,City 540,State 540,121540,,,
E0541,David,Jackson,G,Street 541,City 541,State 541,121541,,,
E0542,Mary,Smith,Y,Street 542,City 542,State 542,121542,,,
E0543,Christopher,Miller,Q,Street 543,City 543,State 543,121543,,,
E0544,Thomas,Martin,U,Street 544,City 544,State 544,121544,,,
E0545,Patricia,Davis,A,Street 545,City 545,State 545,121545,,,
E0546,Mark,Miller,D,Street 546,City 546,State 546,121546,,,
E0547,Thomas,Miller,U,Street 547,City 547,State 547,121547,,,
E0548,Paul,Wilson,P,Street 548,City 548,State 548,121548,,,
E0549,Barbara,Garcia,Q,Street 549,City 549,State 549,121549,,,
E0550,James,Smith,D,Street 550,City 550,State 550,121550,,,
E0551,Barbara,Miller,T,Street 551,City 551,State 551,121551,,,
E0552,Jennifer,Thomas,T,Street 552,City 552,State 552,121552,,,
E0553,Mark,Brown,C,Street 553,City 553,State 553,121553,,,
E0554,Thomas,Harris,V,Street 554,City 554,State 554,121554,,,
E0555,David,Miller,D,Street 555,City 555,State 555,121555,,,
E0556,David,Brown,M,Street 556,City 556,State 556,121556,,,
E0557,Charles,Harris,V,Street 557,City 557,State 557,121557,,,
E0558,Mary,Thomas,E,Street 558,City 558,State 558,121558,,,
E0559,Daniel,Davis,A,Street 559,City 559,State 559,121559,,,
E0560,Charles,Miller,B,Street 560,City 560,State 560,121560,,,
E0561,Patricia,Smith,J,Street 561,City 561,State 561,121561,,,
E0562,David,Robinson,Z,Street 562,City 562,State 562,121562,,,
E0563,John,Garcia,E,Street 563,City 563,State 563,121563,,,
E0564,Robert,Moore,X,Street 564,City 564,State 564,121564,,,
E0565,Jennifer,Harris,G,Street 565,City 565,State 565,121565,,,
E0566,Robert,Johnson,L,Street 566,City 566,State 566,121566,,,
E0567,Patricia,Anderson,E,Street 567,City 567,State 567,121567,,,
E0568,Charles,Harris,S,Street 568,City 568,State 568,121568,,,
E0569,Patricia,Anderson,A,Street 569,City 569,State 569,121569,,,
E0570,Patricia,Martinez,J,Street 570,City 570,State 570,121570,,,
E0571,Christopher,Taylor,K,Street 571,City 571,State 571,121571,,,
E0572,James,Martin,K,Street 572,City 572,State 572,121572,,,
E0573,Jennifer,Garcia,H,Street 573,City 573,State 573,121573,,,
E0574,Michael,Smith,S,Street 574,City 574,State 574,121574,,,
E0575,John,Smith,L,Street 575,City 575,State 575,121575,,,
E0576,David,Williams,N,Street 576,City 576,State 576,121576,,,
E0577,Barbara,Harris,A,Street 577,City 577,State 577,121577,,,
E0578,Elizabeth,Williams,S,Street 578,City 578,State 578,121578,,,
E0579,Christopher,White,G,Street 579,City 579,State 579,121579,,,
E0580,Linda,Davis,E,Street 580,City 580,State 580,121580,,,
E0581,James,Martinez,R,Street 581,City 581,State 581,121581,,,
E0582,Charles,Robinson,M,Street 582,City 582,State 582,121582,,,
E0583,Daniel,Robinson,I,Street 583,City 583,State 583,121583,,,
E0584,John,Williams,J,Street 584,City 584,State 584,121584,,,
E0585,Daniel,Jones,J,Street 585,City 585,State 585,121585,,,
E0586,Mary,Anderson,M,Street 586,City 586,State 586,121586,,,
E0587,Barbara,Davis,F,Street 587,City 587,State 587,121587,,,
E0588,Barbara,Jones,I,Street 588,City 588,State 588,121588,,,
E0589,Charles,Thompson,A,Street 589,City 589,State 589,121589,,,
E0590,Linda,Taylor,I,Street 590,City 590,State 590,121590,,,
E0591,Mark,Taylor,H,Street 591,City 591,State 591,121591,,,
E0592,Thomas,Garcia,G,Street 592,City 592,State 592,121592,,,
E0593,Jennifer,White,F,Street 593,City 593,State 593,121593,,,
E0594,David,Martin,I,Street 594,City 594,State 594,121594,,,
E0595,Linda,Anderson,N,Street 595,City 595,State 595,121595,,,
E0596,John,Harris,A,Street 596,City 596,State 596,121596,,,
E0597,Thomas,Moore,H,Street 597,City 597,State 597,121597,,,
E0598,Daniel,Williams,L,Street 598,City 598,State 598,121598,,,
E0599,John,Thomas,G,Street 599,City 599,State 599,121599,,,
E0600,Robert,Brown,S,Street 600,City 600,State 600,121600,,,
E0601,Joseph,Johnson,F,Street 601,City 601,State 601,121601,,,
E0602,Barbara,Jackson,C,Street 602,City 602,State 602,121602,,,
E0603,Jennifer,Jackson,U,Street 603,City 603,State 603,121603,,,
E0604,Michael,Martinez,N,Street 604,City 604,State 604,121604,,,
E0605,Thomas,Jackson,B,Street 605,City 605,State 605,121605,,,
E0606,James,Harris,T,Street 606,City 606,State 606,121606,,,
E0607,John,Davis,E,Street 607,City 607,State 607,121607,,,
E0608,Richard,Smith,I,Street 608,City 608,State 608,121608,,,
E0609,Paul,Williams,W,Street 609,City 609,State 609,121609,,,
E0610,John,Brown,C,Street 610,City 610,State 610,121610,,,
E0611,Daniel,Harris,E,Street 611,City 611,State 611,121611,,,
E0612,Jennifer,Moore,U,Street 612,City 612,State 612,121612,,,
E0613,John,Moore,K,Street 613,City 613,State 613,121613,,,
E0614,Paul,Jackson,J,Street 614,City 614,State 614,121614,,,
E0615,Richard,Williams,A,Street 615,City 615,State 615,121615,,,
E0616,Charles,Jones,S,Street 616,City 616,State 616,121616,,,
E0617,Michael,Brown,Z,Street 617,City 617,State 617,121617,,,
E0618,Richard,Jackson,Z,Street 618,City 618,State 618,121618,,,
E0619,Linda,Moore,C,Street 619,City 619,State 619,121619,,,
E0620,Thomas,Taylor,I,Street 620,City 620,State 620,121620,,,
E0621,Christopher,Davis,A,Street 621,City 621,State 621,121621,,,
E0622,Paul,Davis,M,Street 622,City 622,State 622,121622,,,
E0623,Christopher,Miller,X,Street 623,City 623,State 623,121623,,,
E0624,James,Jones,N,Street 624,City 624,State 624,121624,,,
E0625,Charles,Thomas,Q,Street 625,City 625,State 625,121625,,,
E0626,Charles,Robinson,V,Street 626,City 626,State 626,121626,,,
E0627,Robert,Williams,B,Street 627,City 627,State 627,121627,,,
E0628,John,Anderson,R,Street 628,City 628,State 628,121628,,,
E0629,John,Jones,C,Street 629,City 629,State 629,121629,,,
E0630,Michael,Harris,O,Street 630,City 630,State 630,121630,,,
E0631,Joseph,Miller,V,Street 631,City 631,State 631,121631,,,
E0632,Thomas,Jones,C,Street 632,City 632,State 632,121632,,,
E0633,James,Thompson,K,Street 633,City 633,State 633,121633,,,
E0634,Elizabeth,Garcia,P,Street 634,City 634,State 634,121634,,,
E0635,Charles,Davis,D,Street 635,City 635,State 635,121635,,,
E0636,John,White,C,Street 636,City 636,State 636,121636,,,
E0637,Mark,Thompson,G,Street 637,City 637,State 637,121637,,,
E0638,Elizabeth,Martinez,T,Street 638,City 638,State 638,121638,,,
E0639,Patricia,Robinson,Y,Street 639,City 639,State 639,121639,,,
E0640,Linda,Jones,Q,Street 640,City 640,State 640,121640,,,
E0641,Mary,Jackson,Z,Street 641,City 641,State 641,121641,,,
E0642,James,Jones,E,Street 642,City 642,State 642,121642,,,
E0643,Robert,Jones,Z,Street 643,City 643,State 643,121643,,,
E0644,Thomas,Johnson,V,Street 644,City 644,State 644,121644,,,
E0645,Robert,Anderson,C,Street 645,City 645,State 645,121645,,,
E0646,William,Thomas,U,Street 646,City 646,State 646,121646,,,
E0647,Richard,Moore,Q,Street 647,City 647,State 647,121647,,,
E0648,Christopher,Miller,O,Street 648,City 648,State 648,121648,,,
E0649,Richard,Martinez,N,Street 649,City 649,State 649,121649,,,
E0650,David,Thomas,R,Street 650,City 650,State 650,121650,,,
E0651,Elizabeth,Martin,I,Street 651,City 651,State 651,121651,,,
E0652,Elizabeth,Thompson,M,Street 652,City 652,State 652,121652,,,
E0653,John,Robinson,R,Street 653,City 653,State 653,121653,,,
E0654,John,Anderson,T,Street 654,City 654,State 654,121654,,,
E0655,Elizabeth,Jackson,G,Street 655,City 655,State 655,121655,,,
E0656,James,Garcia,V,Street 656,City 656,State 656,121656,,,
E0657,Paul,Davis,G,Street 657,City 657,State 657,121657,,,
E0658,Charles,Garcia,O,Street 658,City 658,State 658,121658,,,
E0659,Jennifer,Davis,M,Street 659,City 659,State 659,121659,,,
E0660,Thomas,Thomas,B,Street 660,City 660,State 660,121660,,,
E0661,Michael,Anderson,W,Street 661,City 661,State 661,121661,,,
E0662,Thomas,Moore,S,Street 662,City 662,State 662,121662,,,
E0663,James,Anderson,R,Street 663,City 663,State 663,121663,,,
E0664,Linda,Thomas,E,Street 664,City 664,State 664,121664,,,
E0665,Joseph,Anderson,V,Street 665,City 665,State 665,121665,,,
E0666,Barbara,Anderson,S,Street 666,City 666,State 666,121666,,,
E0667,Thomas,Miller,Z,Street 667,City 667,State 667,121667,,,
E0668,Daniel,Martin,W,Street 668,City 668,State 668,121668,,,
E0669,David,Harris,C,Street 669,City 669,State 669,121669,,,
E0670,Paul,Brown,R,Street 670,City 670,State 670,121670,,,
E0671,Mark,Moore,E,Street 671,City 671,State 671,121671,,,
E0672,Barbara,Martinez,P,Street 672,City 672,State 672,121672,,,
E0673,Charles,Robinson,D,Street 673,City 673,State 673,121673,,,
E0674,Robert,White,S,Street 674,City 674,State 674,121674,,,
E0675,William,Williams,F,Street 675,City 675,State 675,121675,,,
E0676,Robert,Thompson,T,Street 676,City 676,State 676,121676,,,
E0677,Paul,Wilson,B,Street 677,City 677,State 677,121677,,,
E0678,Daniel,Williams,V,Street 678,City 678,State 678,121678,,,
E0679,Christopher,Taylor,O,Street 679,City 679,State 679,121679,,,
E0680,Barbara,Davis,U,Street 680,City 680,State 680,121680,,,
E0681,Charles,Jones,F,Street 681,City 681,State 681,121681,,,
E0682,Patricia,Martinez,E,Street 682,City 682,State 682,121682,,,
E0683,Michael,Wilson,D,Street 683,City 683,State 683,121683,,,
E0684,William,Taylor,T,Street 684,City 684,State 684,121684,,,
E0685,James,Martin,W,Street 685,City 685,State 685,121685,,,
E0686,William,Garcia,S,Street 686,City 686,State 686,121686,,,
E0687,Jennifer,Harris,B,Street 687,City 687,State 687,121687,,,
E0688,John,Taylor,E,Street 688,City 688,State 688,121688,,,
E0689,Elizabeth,Williams,Q,Street 689,City 689,State 689,121689,,,
E0690,Joseph,Garcia,Y,Street 690,City 690,State 690,121690,,,
E0691,William,Davis,C,Street 691,City 691,State 691,121691,,,
E0692,Joseph,Garcia,B,Street 692,City 692,State 692,121692,,,
E0693,Christopher,Smith,L,Street 693,City 693,State 693,121693,,,
E0694,Barbara,Miller,X,Street 694,City 694,State 694,121694,,,
E0695,Thomas,Wilson,S,Street 695,City 695,State 695,121695,,,
E0696,Richard,Jackson,P,Street 696,City 696,State 696,121696,,,
E0697,John,Jackson,H,Street 697,City 697,State 697,121697,,,
E0698,Robert,White,T,Street 698,City 698,State 698,121698,,,
E0699,William,Thomas,X,Street 699,City 699,State 699,121699,,,
E0700,Elizabeth,Smith,U,Street 700,City 700,State 700,121700,,,
E0701,Paul,Davis,B,Street 701,City 701,State 701,121701,,,
E0702,Jennifer,Martin,Y,Street 702,City 702,State 702,121702,,,
E0703,James,Wilson,Y,Street 703,City 703,State 703,121703,,,
E0704,Charles,Williams,H,Street 704,City 704,State 704,121704,,,
E0705,David,Jackson,Q,Street 705,City 705,State 705,121705,,,
E0706,James,Smith,G,Street 706,City 706,State 706,121706,,,
E0707,Christopher,Williams,V,Street 707,City 707,State 707,121707,,,
E0708,Mark,Brown,N,Street 708,City 708,State 708,121708,,,
E0709,Linda,Anderson,C,Street 709,City 709,State 709,121709,,,
E0710,Patricia,Moore,D,Street 710,City 710,State 710,121710,,,
E0711,David,Davis,L,Street 711,City 711,State 711,121711,,,
E0712,Richard,Brown,F,Street 712,City 712,State 712,121712,,,
E0713,David,Brown,P,Street 713,City 713,State 713,121713,,,
E0714,William,White,T,Street 714,City 714,State 714,121714,,,
E0715,Patricia,Smith,J,Street 715,City 715,State 715,121715,,,
E0716,Mary,Smith,K,Street 716,City 716,State 716,121716,,,
E0717,Joseph,White,N,Street 717,City 717,State 717,121717,,,
E0718,William,Anderson,T,Street 718,City 718,State 718,121718,,,
E0719,Paul,Brown,G,Street 719,City 719,State 719,121719,,,
E0720,Elizabeth,Martin,R,Street 720,City 720,State 720,121720,,,
E0721,John,Johnson,Y,Street 721,City 721,State 721,121721,,,
E0722,Joseph,Taylor,E,Street 722,City 722,State 722,121722,,,
E0723,Barbara,Thompson,J,Street 723,City 723,State 723,121723,,,
E0724,David,Johnson,A,Street 724,City 724,State 724,121724,,,
E0725,James,White,B,Street 725,City 725,State 725,121725,,,
E0726,Charles,Garcia,C,Street 726,City 726,State 726,121726,,,
E0727,Paul,Miller,T,Street 727,City 727,State 727,121727,,,
E0728,David,Jackson,H,Street 728,City 728,State 728,121728,,,
E0729,John,Moore,M,Street 729,City 729,State 729,121729,,,
E0730,David,Miller,G,Street 730,City 730,State 730,121730,,,
E0731,Jennifer,Wilson,J,Street 731,City 731,State 731,121731,,,
E0732,Elizabeth,Garcia,W,Street 732,City 732,State 732,121732,,,
E0733,John,Thomas,R,Street 733,City 733,State 733,121733,,,
E0734,Joseph,Martinez,T,Street 734,City 734,State 734,121734,,,
E0735,Thomas,Martinez,K,Street 735,City 735,State 735,121735,,,
E0736,Thomas,Wilson,H,Street 736,City 736,State 736,121736,,,
E0737,Christopher,Brown,P,Street 737,City 737,State 737,121737,,,
E0738,Richard,Thomas,F,Street 738,City 738,State 738,121738,,,
E0739,Christopher,Jackson,Q,Street 739,City 739,State 739,121739,,,
E0740,Robert,Robinson,Y,Street 740,City 740,State 740,121740,,,
E0741,Charles,Martinez,J,Street 741,City 741,State 741,121741,,,
E0742,Daniel,Garcia,G,Street 742,City 742,State 742,121742,,,
E0743,Christopher,Robinson,W,Street 743,City 743,State 743,121743,,,
E0744,William,Moore,T,Street 744,City 744,State 744,121744,,,
E0745,John,Martinez,S,Street 745,City 745,State 745,121745,,,
E0746,Joseph,Taylor,B,Street 746,City 746,State 746,121746,,,
E0747,Barbara,Johnson,H,Street 747,City 747,State 747,121747,,,
E0748,David,Taylor,V,Street 748,City 748,State 748,121748,,,
E0749,Thomas,Williams,M,Street 749,City 749,State 749,121749,,,
E0750,Robert,Davis,K,Street 750,City 750,State 750,121750,,,
E0751,John,White,J,Street 751,City 751,State 751,121751,,,
E0752,Charles,Moore,G,Street 752,City 752,State 752,121752,,,
E0753,Barbara,Johnson,F,Street 753,City 753,State 753,121753,,,
E0754,Thomas,Wilson,Q,Street 754,City 754,State 754,121754,,,
E0755,David,Moore,O,Street 755,City 755,State 755,121755,,,
E0756,James,Garcia,A,Street 756,City 756,State 756,121756,,,
E0757,John,Thomas,D,Street 757,City 757,State 757,121757,,,
E0758,Richard,Martinez,P,Street 758,City 758,State 758,121758,,,
E0759,Michael,Moore,S,Street 759,City 759,State 759,121759,,,
E0760,Christopher,Thomas,Y,Street 760,City 760,State 760,121760,,,
E0761,John,White,Q,Street 761,City 761,State 761,121761,,,
E0762,Charles,Williams,B,Street 762,City 762,State 762,121762,,,
E0763,Linda,Thompson,D,Street 763,City 763,State 763,121763,,,
E0764,Mark,Miller,M,Street 764,City 764,State 764,121764,,,
E0765,Joseph,White,X,Street 765,City 765,State 765,121765,,,
E0766,James,White,T,Street 766,City 766,State 766,121766,,,
E0767,John,Harris,J,Street 767,City 767,State 767,121767,,,
E0768,Michael,Johnson,H,Street 768,City 768,State 768,121768,,,
E0769,Daniel,Davis,S,Street 769,City 769,State 769,121769,,,
E0770,Joseph,Martinez,G,Street 770,City 770,State 770,121770,,,
E0771,Charles,Robinson,X,Street 771,City 771,State 771,121771,,,
E0772,John,Moore,A,Street 772,City 772,State 772,121772,,,
E0773,Robert,Johnson,V,Street 773,City 773,State 773,121773,,,
E0774,William,Martinez,E,Street 774,City 774,State 774,121774,,,
E0775,Barbara,Moore,V,Street 775,City 775,State 775,121775,,,
E0776,Christopher,Taylor,M,Street 776,City 776,State 776,121776,,,
E0777,Richard,Thomas,F,Street 777,City 777,State 777,121777,,,
E0778,Barbara,Harris,H,Street 778,City 778,State 778,121778,,,
E0779,James,Anderson,O,Street 779,City 779,State 779,121779,,,
E0780,Barbara,Smith,L,Street 780,City 780,State 780,121780,,,
E0781,Jennifer,Taylor,L,Street 781,City 781,State 781,121781,,,
E0782,Mark,Anderson,V,Street 782,City 782,State 782,121782,,,
E0783,Elizabeth,White,X,Street 783,City 783,State 783,121783,,,
E0784,Barbara,Martinez,W,Street 784,City 784,State 784,121784,,,
E0785,Mark,White,H,Street 785,City 785,State 785,121785,,,
E0786,Linda,Davis,U,Street 786,City 786,State 786,121786,,,
E0787,Michael,White,I,Street 787,City 787,State 787,121787,,,
E0788,Richard,Moore,B,Street 788,City 788,State 788,121788,,,
E0789,Christopher,Moore,P,Street 789,City 789,State 789,121789,,,
E0790,Michael,Williams,Q,Street 790,City 790,State 790,121790,,,
E0791,Christopher,Williams,C,Street 791,City 791,State 791,121791,,,
E0792,John,Smith,Q,Street 792,City 792,State 792,121792,,,
E0793,Elizabeth,Martinez,H,Street 793,City 793,State 793,121793,,,
E0794,Paul,Jackson,F,Street 794,City 794,State 794,121794,,,
E0795,Linda,Anderson,W,Street 795,City 795,State 795,121795,,,
E0796,Jennifer,Brown,D,Street 796,City 796,State 796,121796,,,
E0797,Barbara,Wilson,U,Street 797,City 797,State 797,121797,,,
E0798,John,Harris,F,Street 798,City 798,State 798,121798,,,
E0799,Robert,Miller,Q,Street 799,City 799,State 799,121799,,,
E0800,Barbara,Anderson,U,Street 800,City 800,State 800,121800,,,
E0801,Richard,Williams,X,Street 801,City 801,State 801,121801,,,
E0802,Joseph,Brown,Y,Street 802,City 802,State 802,121802,,,
E0803,John,Williams,W,Street 803,City 803,State 803,121803,,,
E0804,Richard,Martinez,N,Street 804,City 804,State 804,121804,,,
E0805,Thomas,Jackson,A,Street 805,City 805,State 805,121805,,,
E0806,Richard,Thomas,G,Street 806,City 806,State 806,121806,,,
E0807,Thomas,Miller,Q,Street 807,City 807,State 807,121807,,,
E0808,David,Wilson,I,Street 808,City 808,State 808,121808,,,
E0809,Thomas,Anderson,R,Street 809,City 809,State 809,121809,,,
E0810,Michael,Davis,F,Street 810,City 810,State 810,121810,,,
E0811,Jennifer,Jackson,J,Street 811,City 811,State 811,121811,,,
E0812,Mark,Williams,O,Street 812,City 812,State 812,121812,,,
E0813,Paul,Jones,R,Street 813,City 813,State 813,121813,,,
E0814,Linda,Anderson,P,Street 814,City 814,State 814,121814,,,
E0815,Michael,Johnson,F,Street 815,City 815,State 815,121815,,,
E0816,Mary,Taylor,U,Street 816,City 816,State 816,121816,,,
E0817,Joseph,Smith,C,Street 817,City 817,State 817,121817,,,
E0818,John,Miller,M,Street 818,City 818,State 818,121818,,,
E0819,Charles,Garcia,A,Street 819,City 819,State 819,121819,,,
E0820,Robert,Johnson,H,Street 820,City 820,State 820,121820,,,
E0821,David,Smith,Y,Street 821,City 821,State 821,121821,,,
E0822,Linda,Garcia,B,Street 822,City 822,State 822,121822,,,
E0823,Mary,Harris,G,Street 823,City 823,State 823,121823,,,
E0824,Mark,Moore,T,Street 824,City 824,State 824,121824,,,
E0825,Joseph,Jackson,V,Street 825,City 825,State 825,121825,,,
E0826,Linda,Thompson,I,Street 826,City 826,State 826,121826,,,
E0827,Charles,Miller,I,Street 827,City 827,State 827,121827,,,
E0828,Thomas,Moore,R,Street 828,City 828,State 828,121828,,,
E0829,James,Thompson,N,Street 829,City 829,State 829,121829,,,
E0830,James,Robinson,P,Street 830,City 830,State 830,121830,,,
E0831,David,Davis,P,Street 831,City 831,State 831,121831,,,
E0832,William,Robinson,N,Street 832,City 832,State 832,121832,,,
E0833,Richard,Jones,F,Street 833,City 833,State 833,121833,,,
E0834,Patricia,Johnson,Q,Street 834,City 834,State 834,121834,,,
E0835,David,Anderson,G,Street 835,City 835,State 835,121835,,,
E0836,Michael,Brown,C,Street 836,City 836,State 836,121836,,,
E0837,Thomas,White,K,Street 837,City 837,State 837,121837,,,
E0838,Paul,Jones,V,Street 838,City 838,State 838,121838,,,
E0839,Joseph,Brown,R,Street 839,City 839,State 839,121839,,,
E0840,James,Davis,Q,Street 840,City 840,State 840,121840,,,
E0841,Patricia,Jackson,X,Street 841,City 841,State 841,121841,,,
E0842,Mary,Martinez,W,Street 842,City 842,State 842,121842,,,
E0843,Barbara,Davis,B,Street 843,City 843,State 843,121843,,,
E0844,Elizabeth,Thompson,D,Street 844,City 844,State 844,121844,,,
E0845,Patricia,Jones,R,Street 845,City 845,State 845,121845,,,
E0846,Paul,Wilson,W,Street 846,City 846,State 846,121846,,,
E0847,Mark,Garcia,O,Street 847,City 847,State 847,121847,,,
E0848,William,Harris,T,Street 848,City 848,State 848,121848,,,
E0849,Robert,Jones,Y,Street 849,City 849,State 849,121849,,,
E0850,Daniel,Jones,F,Street 850,City 850,State 850,121850,,,
E0851,Richard,Martin,V,Street 851,City 851,State 851,121851,,,
E0852,David,Robinson,S,Street 852,City 852,State 852,121852,,,
E0853,Michael,White,Z,Street 853,City 853,State 853,121853,,,
E0854,Mary,Jackson,V,Street 854,City 854,State 854,121854,,,
E0855,David,Jones,A,Street 855,City 855,State 855,121855,,,
E0856,James,Robinson,K,Street 856,City 856,State 856,121856,,,
E0857,Mark,Garcia,H,Street 857,City 857,State 857,121857,,,
E0858,Charles,Jones,Z,Street 858,City 858,State 858,121858,,,
E0859,Michael,Miller,E,Street 859,City 859,State 859,121859,,,
E0860,Robert,Johnson,J,Street 860,City 860,State 860,121860,,,
E0861,David,Taylor,D,Street 861,City 861,State 861,121861,,,
E0862,Robert,Martin,D,Street 862,City 862,State 862,121862,,,
E0863,Mark,Robinson,V,Street 863,City 863,State 863,121863,,,
E0864,Paul,Jones,L,Street 864,City 864,State 864,121864,,,
E0865,Christopher,Anderson,P,Street 865,City 865,State 865,121865,,,
E0866,Linda,Anderson,P,Street 866,City 866,State 866,121866,,,
E0867,John,Moore,N,Street 867,City 867,State 867,121867,,,
E0868,David,Garcia,S,Street 868,City 868,State 868,121868,,,
E0869,David,Smith,A,Street 869,City 869,State 869,121869,,,
E0870,Joseph,Williams,C,Street 870,City 870,State 870,121870,,,
E0871,Paul,Taylor,O,Street 871,City 871,State 871,121871,,,
E0872,Jennifer,Jackson,I,Street 872,City 872,State 872,121872,,,
E0873,John,Taylor,I,Street 873,City 873,State 873,121873,,,
E0874,Elizabeth,Davis,M,Street 874,City 874,State 874,121874,,,
E0875,David,Martinez,A,Street 875,City 875,State 875,121875,,,
E0876,Elizabeth,Thomas,P,Street 876,City 876,State 876,121876,,,
E0877,Patricia,Jackson,A,Street 877,City 877,State 877,121877,,,
E0878,John,Robinson,W,Street 878,City 878,State 878,121878,,,
E0879,Daniel,Davis,X,Street 879,City 879,State 879,121879,,,
E0880,Daniel,Martin,B,Street 880,City 880,State 880,121880,,,
E0881,Paul,Jackson,N,Street 881,City 881,State 881,121881,,,
E0882,Richard,Thomas,D,Street 882,City 882,State 882,121882,,,
E0883,Barbara,White,P,Street 883,City 883,State 883,121883,,,
E0884,John,Jackson,W,Street 884,City 884,State 884,121884,,,
E0885,Thomas,Martinez,U,Street 885,City 885,State 885,121885,,,
E0886,Patricia,Garcia,J,Street 886,City 886,State 886,121886,,,
E0887,Michael,Taylor,A,Street 887,City 887,State 887,121887,,,
E0888,Michael,Anderson,Z,Street 888,City 888,State 888,121888,,,
E0889,John,Davis,H,Street 889,City 889,State 889,121889,,,
E0890,Jennifer,Smith,B,Street 890,City 890,State 890,121890,,,
E0891,James,Garcia,R,Street 891,City 891,State 891,121891,,,
E0892,Patricia,Davis,H,Street 892,City 892,State 892,121892,,,
E0893,Linda,Smith,Z,Street 893,City 893,State 893,121893,,,
E0894,William,Johnson,P,Street 894,City 894,State 894,121894,,,
E0895,Michael,Jackson,N,Street 895,City 895,State 895,121895,,,
E0896,Jennifer,Brown,K,Street 896,City 896,State 896,121896,,,
E0897,David,Wilson,W,Street 897,City 897,State 897,121897,,,
E0898,David,Anderson,J,Street 898,City 898,State 898,121898,,,
E0899,David,Thomas,R,Street 899,City 899,State 899,121899,,,
E0900,Patricia,Thomas,S,Street 900,City 900,State 900,121900,,,
E0901,Linda,Thomas,P,Street 901,City 901,State 901,121901,,,
E0902,David,Williams,W,Street 902,City 902,State 902,121902,,,
E0903,Christopher,Thompson,X,Street 903,City 903,State 903,121903,,,
E0904,Patricia,Williams,Z,Street 904,City 904,State 904,121904,,,
E0905,Michael,Davis,P,Street 905,City 905,State 905,121905,,,
E0906,Linda,Brown,V,Street 906,City 906,State 906,121906,,,
E0907,Robert,Anderson,E,Street 907,City 907,State 907,121907,,,
E0908,Jennifer,Garcia,S,Street 908,City 908,State 908,121908,,,
E0909,David,Jones,I,Street 909,City 909,State 909,121909,,,
E0910,James,Martin,W,Street 910,City 910,State 910,121910,,,
E0911,Barbara,Moore,L,Street 911,City 911,State 911,121911,,,
E0912,William,Martin,O,Street 912,City 912,State 912,121912,,,
E0913,Michael,Wilson,K,Street 913,City 913,State 913,121913,,,
E0914,John,Robinson,M,Street 914,City 914,State 914,121914,,,
E0915,John,Jones,T,Street 915,City 915,State 915,121915,,,
E0916,Linda,Garcia,Y,Street 916,City 916,State 916,121916,,,
E0917,Joseph,Robinson,M,Street 917,City 917,State 917,121917,,,
E0918,Linda,Martinez,J,Street 918,City 918,State 918,121918,,,
E0919,Charles,Davis,O,Street 919,City 919,State 919,121919,,,
E0920,Barbara,Davis,I,Street 920,City 920,State 920,121920,,,
E0921,Patricia,Robinson,T,Street 921,City 921,State 921,121921,,,
E0922,James,Davis,N,Street 922,City 922,State 922,121922,,,
E0923,Patricia,Taylor,X,Street 923,City 923,State 923,121923,,,
E0924,Jennifer,Anderson,X,Street 924,City 924,State 924,121924,,,
E0925,Joseph,Jackson,B,Street 925,City 925,State 925,121925,,,
E0926,Mary,Davis,X,Street 926,City 926,State 926,121926,,,
E0927,Michael,Martin,W,Street 927,City 927,State 927,121927,,,
E0928,Linda,Taylor,U,Street 928,City 928,State 928,121928,,,
E0929,James,Garcia,B,Street 929,City 929,State 929,121929,,,
E0930,Patricia,Thomas,I,Street 930,City 930,State 930,121930,,,
E0931,Elizabeth,Jones,I,Street 931,City 931,State 931,121931,,,
E0932,Linda,Brown,P,Street 932,City 932,State 932,121932,,,
E0933,Mary,Martin,B,Street 933,City 933,State 933,121933,,,
E0934,Robert,Martin,P,Street 934,City 934,State 934,121934,,,
E0935,James,Brown,F,Street 935,City 935,State 935,121935,,,
E0936,John,Taylor,N,Street 936,City 936,State 936,121936,,,
E0937,Jennifer,Jackson,H,Street 937,City 937,State 937,121937,,,
E0938,Paul,Davis,T,Street 938,City 938,State 938,121938,,,
E0939,Christopher,Miller,Q,Street 939,City 939,State 939,121939,,,
E0940,Linda,Martinez,F,Street 940,City 940,State 940,121940,,,
E0941,Jennifer,Thompson,K,Street 941,City 941,State 941,121941,,,
E0942,David,Anderson,Q,Street 942,City 942,State 942,121942,,,
E0943,Elizabeth,Harris,K,Street 943,City 943,State 943,121943,,,
E0944,Jennifer,Garcia,F,Street 944,City 944,State 944,121944,,,
E0945,Patricia,Garcia,L,Street 945,City 945,State 945,121945,,,
E0946,Daniel,Robinson,X,Street 946,City 946,State 946,121946,,,
E0947,William,Robinson,N,Street 947,City 947,State 947,121947,,,
E0948,Patricia,Martin,V,Street 948,City 948,State 948,121948,,,
E0949,David,Wilson,D,Street 949,City 949,State 949,121949,,,
E0950,Jennifer,Johnson,B,Street 950,City 950,State 950,121950,,,
E0951,Michael,Johnson,W,Street 951,City 951,State 951,121951,,,
E0952,Christopher,Wilson,K,Street 952,City 952,State 952,121952,,,
E0953,Mary,Davis,D,Street 953,City 953,State 953,121953,,,
E0954,Christopher,Brown,Z,Street 954,City 954,State 954,121954,,,
E0955,Paul,Thompson,X,Street 955,City 955,State 955,121955,,,
E0956,William,Thomas,W,Street 956,City 956,State 956,121956,,,
E0957,Michael,Garcia,V,Street 957,City 957,State 957,121957,,,
E0958,Linda,Taylor,P,Street 958,City 958,State 958,121958,,,
E0959,Thomas,Martin,Z,Street 959,City 959,State 959,121959,,,
E0960,Linda,Harris,B,Street 960,City 960,State 960,121960,,,
E0961,Barbara,Martinez,D,Street 961,City 961,State 961,121961,,,
E0962,Christopher,Anderson,M,Street 962,City 962,State 962,121962,,,
E0963,James,Martin,T,Street 963,City 963,State 963,121963,,,
E0964,Robert,Wilson,A,Street 964,City 964,State 964,121964,,,
E0965,Robert,Brown,V,Street 965,City 965,State 965,121965,,,
E0966,James,Anderson,K,Street 966,City 966,State 966,121966,,,
E0967,Mark,White,H,Street 967,City 967,State 967,121967,,,
E0968,Barbara,Wilson,T,Street 968,City 968,State 968,121968,,,
E0969,David,Garcia,N,Street 969,City 969,State 969,121969,,,
E0970,David,Anderson,G,Street 970,City 970,State 970,121970,,,
E0971,Richard,Davis,F,Street 971,City 971,State 971,121971,,,
E0972,Joseph,Garcia,T,Street 972,City 972,State 972,121972,,,
E0973,Jennifer,Garcia,M,Street 973,City 973,State 973,121973,,,
E0974,Daniel,Robinson,X,Street 974,City 974,State 974,121974,,,
E0975,Daniel,Williams,C,Street 975,City 975,State 975,121975,,,
E0976,Patricia,Williams,P,Street 976,City 976,State 976,121976,,,
E0977,James,Smith,H,Street 977,City 977,State 977,121977,,,
E0978,David,Harris,Q,Street 978,City 978,State 978,121978,,,
E0979,John,Smith,N,Street 979,City 979,State 979,121979,,,
E0980,Patricia,Miller,B,Street 980,City 980,State 980,121980,,,
E0981,Mark,Harris,I,Street 981,City 981,State 981,121981,,,
E0982,John,Brown,F,Street 982,City 982,State 982,121982,,,
E0983,Daniel,Jones,B,Street 983,City 983,State 983,121983,,,
E0984,William,Martinez,B,Street 984,City 984,State 984,121984,,,
E0985,Michael,White,F,Street 985,City 985,State 985,121985,,,
E0986,William,Davis,I,Street 986,City 986,State 986,121986,,,
E0987,Mark,Davis,J,Street 987,City 987,State 987,121987,,,
E0988,Michael,Thomas,B,Street 988,City 988,State 988,121988,,,
E0989,Paul,Jackson,C,Street 989,City 989,State 989,121989,,,
E0990,David,Brown,L,Street 990,City 990,State 990,121990,,,
E0991,Richard,Johnson,E,Street 991,City 991,State 991,121991,,,
E0992,Barbara,Williams,J,Street 992,City 992,State 992,121992,,,
E0993,Elizabeth,Martinez,O,Street 993,City 993,State 993,121993,,,
E0994,Jennifer,Jones,M,Street 994,City 994,State 994,121994,,,
E0995,John,Miller,E,Street 995,City 995,State 995,121995,,,
E0996,William,Jackson,L,Street 996,City 996,State 996,121996,,,
E0997,Patricia,Anderson,T,Street 997,City 997,State 997,121997,,,
E0998,Elizabeth,White,I,Street 998,City 998,State 998,121998,,,
E0999,James,Taylor,Z,Street 999,City 999,State 999,121999,,,
E1000,Robert,Thompson,F,Street 1000,City 1000,State 1000,121000,,,
E1001,Patricia,Jones,H,Street 1001,City 1001,State 1001,121001,,,
E1002,Barbara,Martinez,L,Street 1002,City 1002,State 1002,121002,,,
E1003,John,Thompson,I,Street 1003,City 1003,State 1003,121003,,,
E1004,Christopher,Thompson,N,Street 1004,City 1004,State 1004,121004,,,
E1005,John,Garcia,W,Street 1005,City 1005,State 1005,121005,,,
E1006,William,Williams,M,Street 1006,City 1006,State 1006,121006,,,
E1007,Barbara,Harris,Z,Street 1007,City 1007,State 1007,121007,,,
E1008,Joseph,Jackson,R,Street 1008,City 1008,State 1008,121008,,,
E1009,Daniel,Jackson,D,Street 1009,City 1009,State 1009,121009,,,
E1010,Daniel,Martin,Y,Street 1010,City 1010,State 1010,121010,,,
E1011,Jennifer,Miller,D,Street 1011,City 1011,State 1011,121011,,,
E1012,William,Smith,B,Street 1012,City 1012,State 1012,121012,,,
E1013,Barbara,Williams,X,Street 1013,City 1013,State 1013,121013,,,
E1014,John,Harris,S,Street 1014,City 1014,State 1014,121014,,,
E1015,Patricia,Thompson,P,Street 1015,City 1015,State 1015,121015,,,
E1016,Joseph,Johnson,T,Street 1016,City 1016,State 1016,121016,,,
E1017,Jennifer,Martin,L,Street 1017,City 1017,State 1017,121017,,,
E1018,Jennifer,Davis,C,Street 1018,City 1018,State 1018,121018,,,
E1019,Christopher,Smith,S,Street 1019,City 1019,State 1019,121019,,,
E1020,Daniel,Thompson,M,Street 1020,City 1020,State 1020,121020,,,
E1021,Barbara,Thompson,U,Street 1021,City 1021,State 1021,121021,,,
E1022,Mark,Johnson,V,Street 1022,City 1022,State 1022,121022,,,
E1023,Elizabeth,Thompson,Y,Street 1023,City 1023,State 1023,121023,,,
E1024,Paul,Garcia,R,Street 1024,City 1024,State 1024,121024,,,
E1025,Patricia,Taylor,M,Street 1025,City 1025,State 1025,121025,,,
E1026,Michael,Martinez,O,Street 1026,City 1026,State 1026,121026,,,
E1027,Mark,Garcia,J,Street 1027,City 1027,State 1027,121027,,,
E1028,David,Thompson,P,Street 1028,City 1028,State 1028,121028,,,
E1029,Charles,Taylor,Q,Street 1029,City 1029,State 1029,121029,,,
E1030,Michael,Brown,M,Street 1030,City 1030,State 1030,121030,,,
E1031,Christopher,Martinez,H,Street 1031,City 1031,State 1031,121031,,,
E1032,Charles,Martin,J,Street 1032,City 1032,State 1032,121032,,,
E1033,William,Harris,E,Street 1033,City 1033,State 1033,121033,,,
E1034,Mary,Anderson,A,Street 1034,City 1034,State 1034,121034,,,
E1035,Elizabeth,Johnson,M,Street 1035,City 1035,State 1035,121035,,,
E1036,Richard,Davis,K,Street 1036,City 1036,State 1036,121036,,,
E1037,Jennifer,Williams,H,Street 1037,City 1037,State 1037,121037,,,
E1038,David,Taylor,D,Street 1038,City 1038,State 1038,121038,,,
E1039,Elizabeth,Martinez,P,Street 1039,City 1039,State 1039,121039,,,
E1040,Patricia,Johnson,V,Street 1040,City 1040,State 1040,121040,,,
E1041,James,White,T,Street 1041,City 1041,State 1041,121041,,,
E1042,David,Williams,O,Street 1042,City 1042,State 1042,121042,,,
E1043,Linda,Moore,G,Street 1043,City 1043,State 1043,121043,,,
E1044,Paul,White,V,Street 1044,City 1044,State 1044,121044,,,
E1045,Mark,Thomas,X,Street 1045,City 1045,State 1045,121045,,,
E1046,Richard,Martinez,E,Street 1046,City 1046,State 1046,121046,,,
E1047,Daniel,Garcia,I,Street 1047,City 1047,State 1047,121047,,,
E1048,John,Brown,U,Street 1048,City 1048,State 1048,121048,,,
E1049,Mary,Williams,S,Street 1049,City 1049,State 1049,121049,,,
E1050,Paul,White,U,Street 1050,City 1050,State 1050,121050,,,
E1051,Christopher,Harris,M,Street 1051,City 1051,State 1051,121051,,,
E1052,Richard,Smith,P,Street 1052,City 1052,State 1052,121052,,,
E1053,Elizabeth,White,A,Street 1053,City 1053,State 1053,121053,,,
E1054,Mary,Anderson,R,Street 1054,City 1054,State 1054,121054,,,
E1055,James,Moore,G,Street 1055,City 1055,State 1055,121055,,,
E1056,Elizabeth,Martin,E,Street 1056,City 1056,State 1056,121056,,,
E1057,John,Thomas,C,Street 1057,City 1057,State 1057,121057,,,
E1058,Charles,Jackson,H,Street 1058,City 1058,State 1058,121058,,,
E1059,Mary,Garcia,K,Street 1059,City 1059,State 1059,121059,,,
E1060,Elizabeth,White,C,Street 1060,City 1060,State 1060,121060,,,
E1061,Linda,Miller,U,Street 1061,City 1061,State 1061,121061,,,
E1062,Michael,White,U,Street 1062,City 1062,State 1062,121062,,,
E1063,Daniel,Jackson,M,Street 1063,City 1063,State 1063,121063,,,
E1064,Daniel,Thompson,A,Street 1064,City 1064,State 1064,121064,,,
E1065,Joseph,Garcia,L,Street 1065,City 1065,State 1065,121065,,,
E1066,Barbara,Thompson,G,Street 1066,City 1066,State 1066,121066,,,
E1067,Elizabeth,Martinez,V,Street 1067,City 1067,State 1067,121067,,,
E1068,Jennifer,Miller,M,Street 1068,City 1068,State 1068,121068,,,
E1069,William,Anderson,I,Street 1069,City 1069,State 1069,121069,,,
E1070,Linda,Taylor,Z,Street 1070,City 1070,State 1070,121070,,,
E1071,Daniel,Jones,H,Street 1071,City 1071,State 1071,121071,,,
E1072,Patricia,Miller,Z,Street 1072,City 1072,State 1072,121072,,,
E1073,Richard,Johnson,Q,Street 1073,City 1073,State 1073,121073,,,
E1074,Mark,Garcia,M,Street 1074,City 1074,State 1074,121074,,,
E1075,Mark,Wilson,J,Street 1075,City 1075,State 1075,121075,,,
E1076,David,Johnson,E,Street 1076,City 1076,State 1076,121076,,,
E1077,Patricia,Smith,B,Street 1077,City 1077,State 1077,121077,,,
E1078,Charles,Robinson,J,Street 1078,City 1078,State 1078,121078,,,
E1079,Mark,Davis,X,Street 1079,City 1079,State 1079,121079,,,
E1080,Mary,Robinson,J,Street 1080,City 1080,State 1080,121080,,,
E1081,Michael,Harris,N,Street 1081,City 1081,State 1081,121081,,,
E1082,Joseph,Davis,W,Street 1082,City 1082,State 1082,121082,,,
E1083,Joseph,Jackson,Y,Street 1083,City 1083,State 1083,121083,,,
E1084,Robert,Taylor,W,Street 1084,City 1084,State 1084,121084,,,
E1085,Christopher,Wilson,F,Street 1085,City 1085,State 1085,121085,,,
E1086,Jennifer,Harris,I,Street 1086,City 1086,State 1086,121086,,,
E1087,Robert,Miller,I,Street 1087,City 1087,State 1087,121087,,,
E1088,Michael,Harris,I,Street 1088,City 1088,State 1088,121088,,,
E1089,Patricia,Jackson,P,Street 1089,City 1089,State 1089,121089,,,
E1090,Joseph,Thompson,O,Street 1090,City 1090,State 1090,121090,,,
E1091,Paul,Smith,G,Street 1091,City 1091,State 1091,121091,,,
E1092,Richard,Taylor,O,Street 1092,City 1092,State 1092,121092,,,
E1093,Mary,Robinson,E,Street 1093,City 1093,State 1093,121093,,,
E1094,Michael,Williams,Q,Street 1094,City 1094,State 1094,121094,,,
E1095,James,Harris,A,Street 1095,City 1095,State 1095,121095,,,
E1096,Mary,White,S,Street 1096,City 1096,State 1096,121096,,,
E1097,Patricia,Thompson,A,Street 1097,City 1097,State 1097,121097,,,
E1098,Mark,Robinson,T,Street 1098,City 1098,State 1098,121098,,,
E1099,Mary,Anderson,J,Street 1099,City 1099,State 1099,121099,,,
E1100,Paul,Robinson,E,Street 1100,City 1100,State 1100,121100,,,
E1101,Richard,Thompson,E,Street 1101,City 1101,State 1101,121101,,,
E1102,Christopher,Jones,R,Street 1102,City 1102,State 1102,121102,,,
E1103,Michael,Moore,Q,Street 1103,City 1103,State 1103,121103,,,
E1104,David,Thomas,T,Street 1104,City 1104,State 1104,121104,,,
E1105,Jennifer,Thomas,M,Street 1105,City 1105,State 1105,121105,,,
E1106,Jennifer,Thompson,E,Street 1106,City 1106,State 1106,121106,,,
E1107,Barbara,Wilson,Z,Street 1107,City 1107,State 1107,121107,,,
E1108,Daniel,Davis,Y,Street 1108,City 1108,State 1108,121108,,,
E1109,Thomas,Taylor,M,Street 1109,City 1109,State 1109,121109,,,
E1110,Mark,Davis,M,Street 1110,City 1110,State 1110,121110,,,
E1111,John,White,H,Street 1111,City 1111,State 1111,121111,,,
E1112,Mary,Davis,M,Street 1112,City 1112,State 1112,121112,,,
E1113,Mark,Moore,W,Street 1113,City 1113,State 1113,121113,,,
E1114,Thomas,Martin,L,Street 1114,City 1114,State 1114,121114,,,
E1115,William,Martin,A,Street 1115,City 1115,State 1115,121115,,,
E1116,Daniel,Harris,W,Street 1116,City 1116,State 1116,121116,,,
E1117,Elizabeth,Taylor,F,Street 1117,City 1117,State 1117,121117,,,
E1118,Elizabeth,Brown,N,Street 1118,City 1118,State 1118,121118,,,
E1119,Paul,Harris,Z,Street 1119,City 1119,State 1119,121119,,,
E1120,David,Jackson,H,Street 1120,City 1120,State 1120,121120,,,
E1121,Daniel,White,Y,Street 1121,City 1121,State 1121,121121,,,
E1122,John,Garcia,F,Street 1122,City 1122,State 1122,121122,,,
E1123,Patricia,Martin,Q,Street 1123,City 1123,State 1123,121123,,,
E1124,Joseph,Miller,L,Street 1124,City 1124,State 1124,121124,,,
E1125,Elizabeth,Jackson,E,Street 1125,City 1125,State 1125,121125,,,
E1126,Elizabeth,Wilson,Y,Street 1126,City 1126,State 1126,121126,,,
E1127,Daniel,Miller,K,Street 1127,City 1127,State 1127,121127,,,
E1128,James,Brown,Q,Street 1128,City 1128,State 1128,121128,,,
E1129,Thomas,Johnson,J,Street 1129,City 1129,State 1129,121129,,,
E1130,Thomas,Wilson,A,Street 1130,City 1130,State 1130,121130,,,
E1131,Daniel,Jones,R,Street 1131,City 1131,State 1131,121131,,,
E1132,Barbara,Davis,P,Street 1132,City 1132,State 1132,121132,,,
E1133,Elizabeth,Garcia,J,Street 1133,City 1133,State 1133,121133,,,
E1134,Patricia,Miller,R,Street 1134,City 1134,State 1134,121134,,,
E1135,James,Brown,H,Street 1135,City 1135,State 1135,121135,,,
E1136,Mary,Jones,R,Street 1136,City 1136,State 1136,121136,,,
E1137,Robert,Robinson,A,Street 1137,City 1137,State 1137,121137,,,
E1138,Thomas,Robinson,F,Street 1138,City 1138,State 1138,121138,,,
E1139,Michael,Anderson,H,Street 1139,City 1139,State 1139,121139,,,
E1140,Thomas,Smith,R,Street 1140,City 1140,State 1140,121140,,,
E1141,Thomas,Thompson,W,Street 1141,City 1141,State 1141,121141,,,
E1142,Mary,Anderson,E,Street 1142,City 1142,State 1142,121142,,,
E1143,Paul,Taylor,A,Street 1143,City 1143,State 1143,121143,,,
E1144,Michael,Johnson,J,Street 1144,City 1144,State 1144,121144,,,
E1145,Paul,Williams,P,Street 1145,City 1145,State 1145,121145,,,
E1146,Robert,Miller,T,Street 1146,City 1146,State 1146,121146,,,
E1147,Paul,Moore,T,Street 1147,City 1147,State 1147,121147,,,
E1148,Paul,Robinson,S,Street 1148,City 1148,State 1148,121148,,,
E1149,James,Jones,G,Street 1149,City 1149,State 1149,121149,,,
E1150,David,White,G,Street 1150,City 1150,State 1150,121150,,,
E1151,James,Brown,B,Street 1151,City 1151,State 1151,121151,,,
E1152,Mark,Taylor,Q,Street 1152,City 1152,State 1152,121152,,,
E1153,John,Davis,C,Street 1153,City 1153,State 1153,121153,,,
E1154,John,Moore,F,Street 1154,City 1154,State 1154,121154,,,
E1155,Charles,Davis,H,Street 1155,City 1155,State 1155,121155,,,
E1156,James,Moore,P,Street 1156,City 1156,State 1156,121156,,,
E1157,Daniel,Davis,B,Street 1157,City 1157,State 1157,121157,,,
E1158,Thomas,Johnson,B,Street 1158,City 1158,State 1158,121158,,,
E1159,Mary,Williams,F,Street 1159,City 1159,State 1159,121159,,,
E1160,Joseph,Taylor,X,Street 1160,City 1160,State 1160,121160,,,
E1161,Barbara,Taylor,D,Street 1161,City 1161,State 1161,121161,,,
E1162,Daniel,Wilson,P,Street 1162,City 1162,State 1162,121162,,,
E1163,Charles,Moore,X,Street 1163,City 1163,State 1163,121163,,,
E1164,Thomas,Taylor,I,Street 1164,City 1164,State 1164,121164,,,
E1165,Barbara,Martinez,Q,Street 1165,City 1165,State 1165,121165,,,
E1166,James,Martinez,B,Street 1166,City 1166,State 1166,121166,,,
E1167,Christopher,Harris,I,Street 1167,City 1167,State 1167,121167,,,
E1168,Linda,Brown,K,Street 1168,City 1168,State 1168,121168,,,
E1169,Barbara,Taylor,N,Street 1169,City 1169,State 1169,121169,,,
E1170,Elizabeth,Martinez,Z,Street 1170,City 1170,State 1170,121170,,,
E1171,Paul,White,L,Street 1171,City 1171,State 1171,121171,,,
E1172,Jennifer,Taylor,V,Street 1172,City 1172,State 1172,121172,,,
E1173,Patricia,Garcia,G,Street 1173,City 1173,State 1173,121173,,,
E1174,Joseph,Wilson,T,Street 1174,City 1174,State 1174,121174,,,
E1175,Daniel,Williams,R,Street 1175,City 1175,State 1175,121175,,,
E1176,Charles,Williams,P,Street 1176,City 1176,State 1176,121176,,,
E1177,Joseph,Martin,I,Street 1177,City 1177,State 1177,121177,,,
E1178,Daniel,Taylor,O,Street 1178,City 1178,State 1178,121178,,,
E1179,Michael,Jones,A,Street 1179,City 1179,State 1179,121179,,,
E1180,Linda,Williams,Y,Street 1180,City 1180,State 1180,121180,,,
E1181,Linda,Martinez,P,Street 1181,City 1181,State 1181,121181,,,
E1182,Robert,Garcia,B,Street 1182,City 1182,State 1182,121182,,,
E1183,Elizabeth,Taylor,Y,Street 1183,City 1183,State 1183,121183,,,
E1184,Michael,Martinez,I,Street 1184,City 1184,State 1184,121184,,,
E1185,Mark,Harris,L,Street 1185,City 1185,State 1185,121185,,,
E1186,Thomas,Williams,P,Street 1186,City 1186,State 1186,121186,,,
E1187,Robert,Thomas,J,Street 1187,City 1187,State 1187,121187,,,
E1188,Joseph,Wilson,V,Street 1188,City 1188,State 1188,121188,,,
E1189,James,Anderson,A,Street 1189,City 1189,State 1189,121189,,,
E1190,James,Brown,C,Street 1190,City 1190,State 1190,121190,,,
E1191,Jennifer,Garcia,A,Street 1191,City 1191,State 1191,121191,,,
E1192,Patricia,Robinson,Y,Street 1192,City 1192,State 1192,121192,,,
E1193,Linda,Martinez,K,Street 1193,City 1193,State 1193,121193,,,
E1194,Patricia,Johnson,H,Street 1194,City 1194,State 1194,121194,,,
E1195,Elizabeth,Robinson,A,Street 1195,City 1195,State 1195,121195,,,
E1196,Richard,Anderson,D,Street 1196,City 1196,State 1196,121196,,,
E1197,Jennifer,Jackson,S,Street 1197,City 1197,State 1197,121197,,,
E1198,David,Williams,C,Street 1198,City 1198,State 1198,121198,,,
E1199,Michael,Williams,Q,Street 1199,City 1199,State 1199,121199,,,
E1200,Michael,Williams,W,Street 1200,City 1200,State 1200,121200,,,
E1201,William,Williams,T,Street 1201,City 1201,State 1201,121201,,,
E1202,David,Harris,T,Street 1202,City 1202,State 1202,121202,,,
E1203,Mary,Wilson,R,Street 1203,City 1203,State 1203,121203,,,
E1204,Christopher,Robinson,T,Street 1204,City 1204,State 1204,121204,,,
E1205,Elizabeth,Garcia,R,Street 1205,City 1205,State 1205,121205,,,
E1206,Elizabeth,Davis,E,Street 1206,City 1206,State 1206,121206,,,
E1207,John,Brown,V,Street 1207,City 1207,State 1207,121207,,,
E1208,Daniel,Thomas,Y,Street 1208,City 1208,State 1208,121208,,,
E1209,Mark,Harris,B,Street 1209,City 1209,State 1209,121209,,,
E1210,Thomas,Garcia,F,Street 1210,City 1210,State 1210,121210,,,
E1211,Richard,Williams,J,Street 1211,City 1211,State 1211,121211,,,
E1212,Robert,Taylor,B,Street 1212,City 1212,State 1212,121212,,,
E1213,Mark,White,L,Street 1213,City 1213,State 1213,121213,,,
E1214,Thomas,Miller,L,Street 1214,City 1214,State 1214,121214,,,
E1215,William,Brown,I,Street 1215,City 1215,State 1215,121215,,,
E1216,Jennifer,Jones,O,Street 1216,City 1216,State 1216,121216,,,
E1217,Michael,Brown,U,Street 1217,City 1217,State 1217,121217,,,
E1218,Jennifer,Smith,J,Street 1218,City 1218,State 1218,121218,,,
E1219,Elizabeth,Garcia,B,Street 1219,City 1219,State 1219,121219,,,
E1220,James,Wilson,Y,Street 1220,City 1220,State 1220,121220,,,
E1221,Mary,Martin,C,Street 1221,City 1221,State 1221,121221,,,
E1222,Patricia,Martinez,O,Street 1222,City 1222,State 1222,121222,,,
E1223,Linda,Martin,G,Street 1223,City 1223,State 1223,121223,,,
E1224,Robert,Miller,O,Street 1224,City 1224,State 1224,121224,,,
E1225,Patricia,Jackson,T,Street 1225,City 1225,State 1225,121225,,,
E1226,Mark,Thomas,X,Street 1226,City 1226,State 1226,121226,,,
E1227,Charles,Martin,D,Street 1227,City 1227,State 1227,121227,,,
E1228,Mary,Martin,D,Street 1228,City 1228,State 1228,121228,,,
E1229,Christopher,White,A,Street 1229,City 1229,State 1229,121229,,,
E1230,Linda,Harris,L,Street 1230,City 1230,State 1230,121230,,,
E1231,Christopher,Robinson,F,Street 1231,City 1231,State 1231,121231,,,
E1232,Barbara,Anderson,C,Street 1232,City 1232,State 1232,121232,,,
E1233,William,Brown,X,Street 1233,City 1233,State 1233,121233,,,
E1234,Thomas,Miller,G,Street 1234,City 1234,State 1234,121234,,,
E1235,John,Garcia,W,Street 1235,City 1235,State 1235,121235,,,
E1236,Paul,Harris,L,Street 1236,City 1236,State 1236,121236,,,
E1237,Daniel,Jones,F,Street 1237,City 1237,State 1237,121237,,,
E1238,Elizabeth,Moore,Y,Street 1238,City 1238,State 1238,121238,,,
E1239,John,Smith,R,Street 1239,City 1239,State 1239,121239,,,
E1240,John,Harris,J,Street 1240,City 1240,State 1240,121240,,,
E1241,Thomas,Miller,I,Street 1241,City 1241,State 1241,121241,,,
E1242,Barbara,Johnson,W,Street 1242,City 1242,State 1242,121242,,,
E1243,Paul,Wilson,B,Street 1243,City 1243,State 1243,121243,,,
E1244,Barbara,Garcia,K,Street 1244,City 1244,State 1244,121244,,,
E1245,Jennifer,Robinson,G,Street 1245,City 1245,State 1245,121245,,,
E1246,Paul,Thompson,A,Street 1246,City 1246,State 1246,121246,,,
E1247,William,Thomas,F,Street 1247,City 1247,State 1247,121247,,,
E1248,Joseph,Taylor,Q,Street 1248,City 1248,State 1248,121248,,,
E1249,Joseph,Anderson,R,Street 1249,City 1249,State 1249,121249,,,
E1250,Robert,Jackson,J,Street 1250,City 1250,State 1250,121250,,,
E1251,Joseph,Williams,S,Street 1251,City 1251,State 1251,121251,,,
E1252,Daniel,Garcia,U,Street 1252,City 1252,State 1252,121252,,,
E1253,Linda,Harris,D,Street 1253,City 1253,State 1253,121253,,,
E1254,Barbara,Moore,A,Street 1254,City 1254,State 1254,121254,,,
E1255,Robert,Moore,A,Street 1255,City 1255,State 1255,121255,,,
E1256,Richard,Brown,U,Street 1256,City 1256,State 1256,121256,,,
E1257,Richard,Anderson,J,Street 1257,City 1257,State 1257,121257,,,
E1258,Patricia,Smith,V,Street 1258,City 1258,State 1258,121258,,,
E1259,Mary,Taylor,J,Street 1259,City 1259,State 1259,121259,,,
E1260,Mark,Thomas,Z,Street 1260,City 1260,State 1260,121260,,,
E1261,Mary,Johnson,D,Street 1261,City 1261,State 1261,121261,,,
E1262,Elizabeth,Garcia,A,Street 1262,City 1262,State 1262,121262,,,
E1263,Barbara,Anderson,S,Street 1263,City 1263,State 1263,121263,,,
E1264,Mark,Davis,D,Street 1264,City 1264,State 1264,121264,,,
E1265,Elizabeth,Wilson,O,Street 1265,City 1265,State 1265,121265,,,
E1266,Elizabeth,Martin,U,Street 1266,City 1266,State 1266,121266,,,
E1267,Barbara,Jones,I,Street 1267,City 1267,State 1267,121267,,,
E1268,John,Harris,J,Street 1268,City 1268,State 1268,121268,,,
E1269,Elizabeth,Robinson,V,Street 1269,City 1269,State 1269,121269,,,
E1270,William,Thompson,K,Street 1270,City 1270,State 1270,121270,,,
E1271,William,Johnson,M,Street 1271,City 1271,State 1271,121271,,,
E1272,Charles,Smith,I,Street 1272,City 1272,State 1272,121272,,,
E1273,Charles,Martin,W,Street 1273,City 1273,State 1273,121273,,,
E1274,Robert,Jackson,C,Street 1274,City 1274,State 1274,121274,,,
E1275,William,Anderson,M,Street 1275,City 1275,State 1275,121275,,,
E1276,Paul,Taylor,G,Street 1276,City 1276,State 1276,121276,,,
E1277,Patricia,Jones,K,Street 1277,City 1277,State 1277,121277,,,
E1278,Elizabeth,Davis,D,Street 1278,City 1278,State 1278,121278,,,
E1279,William,Jones,C,Street 1279,City 1279,State 1279,121279,,,
E1280,Robert,Taylor,Y,Street 1280,City 1280,State 1280,121280,,,
E1281,Thomas,Harris,A,Street 1281,City 1281,State 1281,121281,,,
E1282,James,Jones,A,Street 1282,City 1282,State 1282,121282,,,
E1283,David,Thomas,U,Street 1283,City 1283,State 1283,121283,,,
E1284,Mary,Harris,L,Street 1284,City 1284,State 1284,121284,,,
E1285,David,Robinson,Z,Street 1285,City 1285,State 1285,121285,,,
E1286,Daniel,Martin,L,Street 1286,City 1286,State 1286,121286,,,
E1287,James,Wilson,P,Street 1287,City 1287,State 1287,121287,,,
E1288,Charles,Davis,W,Street 1288,City 1288,State 1288,121288,,,
E1289,Patricia,Thomas,A,Street 1289,City 1289,State 1289,121289,,,
E1290,Linda,White,M,Street 1290,City 1290,State 1290,121290,,,
E1291,Patricia,Brown,G,Street 1291,City 1291,State 1291,121291,,,
E1292,Christopher,Brown,K,Street 1292,City 1292,State 1292,121292,,,
E1293,Christopher,Thomas,Z,Street 1293,City 1293,State 1293,121293,,,
E1294,Charles,Martin,R,Street 1294,City 1294,State 1294,121294,,,
E1295,Mark,Johnson,R,Street 1295,City 1295,State 1295,121295,,,
E1296,Paul,Garcia,L,Street 1296,City 1296,State 1296,121296,,,
E1297,Mary,Martinez,U,Street 1297,City 1297,State 1297,121297,,,
E1298,Paul,Miller,C,Street 1298,City 1298,State 1298,121298,,,
E1299,Linda,Garcia,R,Street 1299,City 1299,State 1299,121299,,,
E1300,Barbara,Anderson,J,Street 1300,City 1300,State 1300,121300,,,
E1301,Mary,Williams,O,Street 1301,City 1301,State 1301,121301,,,
E1302,Joseph,Harris,U,Street 1302,City 1302,State 1302,121302,,,
E1303,Mark,Wilson,J,Street 1303,City 1303,State 1303,121303,,,
E1304,Mark,Martin,D,Street 1304,City 1304,State 1304,121304,,,
E1305,Patricia,Jackson,G,Street 1305,City 1305,State 1305,121305,,,
E1306,Mary,Taylor,D,Street 1306,City 1306,State 1306,121306,,,
E1307,Christopher,Harris,B,Street 1307,City 1307,State 1307,121307,,,
E1308,Charles,Thomas,J,Street 1308,City 1308,State 1308,121308,,,
E1309,Thomas,Davis,G,Street 1309,City 1309,State 1309,121309,,,
E1310,Mary,Robinson,U,Street 1310,City 1310,State 1310,121310,,,
E1311,Patricia,Brown,X,Street 1311,City 1311,State 1311,121311,,,
E1312,Robert,White,Q,Street 1312,City 1312,State 1312,121312,,,
E1313,Elizabeth,Thomas,A,Street 1313,City 1313,State 1313,121313,,,
E1314,David,Moore,U,Street 1314,City 1314,State 1314,121314,,,
E1315,Joseph,Robinson,L,Street 1315,City 1315,State 1315,121315,,,
E1316,Linda,Brown,X,Street 1316,City 1316,State 1316,121316,,,
E1317,Paul,Thompson,Q,Street 1317,City 1317,State 1317,121317,,,
E1318,Mark,Davis,F,Street 1318,City 1318,State 1318,121318,,,
E1319,William,Thompson,M,Street 1319,City 1319,State 1319,121319,,,
E1320,Thomas,Smith,L,Street 1320,City 1320,State 1320,121320,,,
E1321,David,Thomas,R,Street 1321,City 1321,State 1321,121321,,,
E1322,William,Harris,J,Street 1322,City 1322,State 1322,121322,,,
E1323,Elizabeth,Jackson,Y,Street 1323,City 1323,State 1323,121323,,,
E1324,Elizabeth,Martinez,J,Street 1324,City 1324,State 1324,121324,,,
E1325,Barbara,Moore,I,Street 1325,City 1325,State 1325,121325,,,
E1326,Robert,Williams,O,Street 1326,City 1326,State 1326,121326,,,
E1327,John,Martinez,K,Street 1327,City 1327,State 1327,121327,,,
E1328,Barbara,Thompson,R,Street 1328,City 1328,State 1328,121328,,,
E1329,Elizabeth,Johnson,N,Street 1329,City 1329,State 1329,121329,,,
E1330,Richard,Jackson,N,Street 1330,City 1330,State 1330,121330,,,
E1331,Paul,Martinez,D,Street 1331,City 1331,State 1331,121331,,,
E1332,Joseph,Brown,V,Street 1332,City 1332,State 1332,121332,,,
E1333,Mark,Williams,M,Street 1333,City 1333,State 1333,121333,,,
E1334,Daniel,Smith,L,Street 1334,City 1334,State 1334,121334,,,
E1335,Robert,Harris,V,Street 1335,City 1335,State 1335,121335,,,
E1336,Joseph,Garcia,Y,Street 1336,City 1336,State 1336,121336,,,
E1337,James,Martinez,W,Street 1337,City 1337,State 1337,121337,,,
E1338,Charles,Jackson,S,Street 1338,City 1338,State 1338,121338,,,
E1339,Robert,Anderson,U,Street 1339,City 1339,State 1339,121339,,,
E1340,Christopher,Martinez,K,Street 1340,City 1340,State 1340,121340,,,
E1341,Robert,Harris,J,Street 1341,City 1341,State 1341,121341,,,
E1342,William,Brown,O,Street 1342,City 1342,State 1342,121342,,,
E1343,Robert,Johnson,R,Street 1343,City 1343,State 1343,121343,,,
E1344,Christopher,Garcia,R,Street 1344,City 1344,State 1344,121344,,,
E1345,James,Smith,J,Street 1345,City 1345,State 1345,121345,,,
E1346,Mark,Taylor,G,Street 1346,City 1346,State 1346,121346,,,
E1347,Paul,Anderson,E,Street 1347,City 1347,State 1347,121347,,,
E1348,Barbara,Robinson,V,Street 1348,City 1348,State 1348,121348,,,
E1349,Charles,Johnson,I,Street 1349,City 1349,State 1349,121349,,,
E1350,Michael,White,G,Street 1350,City 1350,State 1350,121350,,,
E1351,Patricia,Martin,Z,Street 1351,City 1351,State 1351,121351,,,
E1352,Elizabeth,Johnson,F,Street 1352,City 1352,State 1352,121352,,,
E1353,Joseph,Jones,H,Street 1353,City 1353,State 1353,121353,,,
E1354,Michael,Martin,E,Street 1354,City 1354,State 1354,121354,,,
E1355,Paul,Thompson,E,Street 1355,City 1355,State 1355,121355,,,
E1356,Mary,Harris,R,Street 1356,City 1356,State 1356,121356,,,
E1357,Joseph,Anderson,F,Street 1357,City 1357,State 1357,121357,,,
E1358,Christopher,Davis,D,Street 1358,City 1358,State 1358,121358,,,
E1359,Charles,White,F,Street 1359,City 1359,State 1359,121359,,,
E1360,Daniel,Garcia,W,Street 1360,City 1360,State 1360,121360,,,
E1361,James,Taylor,R,Street 1361,City 1361,State 1361,121361,,,
E1362,James,Moore,S,Street 1362,City 1362,State 1362,121362,,,
E1363,Mary,Martinez,X,Street 1363,City 1363,State 1363,121363,,,
E1364,Joseph,Johnson,R,Street 1364,City 1364,State 1364,121364,,,
E1365,Christopher,Garcia,M,Street 1365,City 1365,State 1365,121365,,,
E1366,Paul,Johnson,F,Street 1366,City 1366,State 1366,121366,,,
E1367,Joseph,Anderson,T,Street 1367,City 1367,State 1367,121367,,,
E1368,Linda,Jones,Z,Street 1368,City 1368,State 1368,121368,,,
E1369,Paul,Jackson,Q,Street 1369,City 1369,State 1369,121369,,,
E1370,James,Moore,N,Street 1370,City 1370,State 1370,121370,,,
E1371,Elizabeth,Moore,Z,Street 1371,City 1371,State 1371,121371,,,
E1372,Patricia,Moore,K,Street 1372,City 1372,State 1372,121372,,,
E1373,David,White,H,Street 1373,City 1373,State 1373,121373,,,
E1374,Mary,Williams,J,Street 1374,City 1374,State 1374,121374,,,
E1375,Mark,Martin,G,Street 1375,City 1375,State 1375,121375,,,
E1376,Richard,Thomas,I,Street 1376,City 1376,State 1376,121376,,,
E1377,Patricia,Johnson,W,Street 1377,City 1377,State 1377,121377,,,
E1378,William,Harris,B,Street 1378,City 1378,State 1378,121378,,,
E1379,William,Thomas,R,Street 1379,City 1379,State 1379,121379,,,
E1380,Elizabeth,Jackson,C,Street 1380,City 1380,State 1380,121380,,,
E1381,Charles,Anderson,N,Street 1381,City 1381,State 1381,121381,,,
E1382,Charles,Johnson,Z,Street 1382,City 1382,State 1382,121382,,,
E1383,Paul,Wilson,Q,Street 1383,City 1383,State 1383,121383,,,
E1384,Robert,Jackson,U,Street 1384,City 1384,State 1384,121384,,,
E1385,Joseph,Taylor,O,Street 1385,City 1385,State 1385,121385,,,
E1386,Barbara,Thompson,E,Street 1386,City 1386,State 1386,121386,,,
E1387,John,Moore,F,Street 1387,City 1387,State 1387,121387,,,
E1388,Jennifer,White,Z,Street 1388,City 1388,State 1388,121388,,,
E1389,James,Robinson,O,Street 1389,City 1389,State 1389,121389,,,
E1390,Linda,Martinez,E,Street 1390,City 1390,State 1390,121390,,,
E1391,Daniel,Wilson,R,Street 1391,City 1391,State 1391,121391,,,
E1392,David,Martin,U,Street 1392,City 1392,State 1392,121392,,,
E1393,William,Jackson,E,Street 1393,City 1393,State 1393,121393,,,
E1394,Elizabeth,Harris,U,Street 1394,City 1394,State 1394,121394,,,
E1395,Linda,Brown,G,Street 1395,City 1395,State 1395,121395,,,
E1396,William,Martinez,C,Street 1396,City 1396,State 1396,121396,,,
E1397,Charles,Smith,N,Street 1397,City 1397,State 1397,121397,,,
E1398,Christopher,Robinson,F,Street 1398,City 1398,State 1398,121398,,,
E1399,Christopher,Robinson,E,Street 1399,City 1399,State 1399,121399,,,
E1400,Michael,White,C,Street 1400,City 1400,State 1400,121400,,,
E1401,Richard,Taylor,L,Street 1401,City 1401,State 1401,121401,,,
E1402,James,Martin,G,Street 1402,City 1402,State 1402,121402,,,
E1403,Paul,Johnson,V,Street 1403,City 1403,State 1403,121403,,,
E1404,James,Robinson,O,Street 1404,City 1404,State 1404,121404,,,
E1405,Daniel,White,T,Street 1405,City 1405,State 1405,121405,,,
E1406,James,Martinez,S,Street 1406,City 1406,State 1406,121406,,,
E1407,Michael,Wilson,T,Street 1407,City 1407,State 1407,121407,,,
E1408,Linda,Smith,S,Street 1408,City 1408,State 1408,121408,,,
E1409,Mark,Jackson,S,Street 1409,City 1409,State 1409,121409,,,
E1410,John,Thompson,J,Street 1410,City 1410,State 1410,121410,,,
E1411,Michael,Jones,V,Street 1411,City 1411,State 1411,121411,,,
E1412,Christopher,Brown,P,Street 1412,City 1412,State 1412,121412,,,
E1413,Paul,Smith,R,Street 1413,City 1413,State 1413,121413,,,
E1414,Linda,Smith,Q,Street 1414,City 1414,State 1414,121414,,,
E1415,Mary,Thompson,H,Street 1415,City 1415,State 1415,121415,,,
E1416,James,Garcia,G,Street 1416,City 1416,State 1416,121416,,,
E1417,Barbara,Smith,P,Street 1417,City 1417,State 1417,121417,,,
E1418,Joseph,White,P,Street 1418,City 1418,State 1418,121418,,,
E1419,Michael,Anderson,F,Street 1419,City 1419,State 1419,121419,,,
E1420,Mark,Jackson,A,Street 1420,City 1420,State 1420,121420,,,
E1421,Mary,Martin,F,Street 1421,City 1421,State 1421,121421,,,
E1422,John,Wilson,K,Street 1422,City 1422,State 1422,121422,,,
E1423,Linda,Brown,L,Street 1423,City 1423,State 1423,121423,,,
E1424,David,Martinez,L,Street 1424,City 1424,State 1424,121424,,,
E1425,Elizabeth,Jones,H,Street 1425,City 1425,State 1425,121425,,,
E1426,William,Jones,D,Street 1426,City 1426,State 1426,121426,,,
E1427,Joseph,Martinez,D,Street 1427,City 1427,State 1427,121427,,,
E1428,John,Wilson,U,Street 1428,City 1428,State 1428,121428,,,
E1429,Linda,Anderson,J,Street 1429,City 1429,State 1429,121429,,,
E1430,Elizabeth,Wilson,Z,Street 1430,City 1430,State 1430,121430,,,
E1431,Elizabeth,Jackson,T,Street 1431,City 1431,State 1431,121431,,,
E1432,Robert,White,D,Street 1432,City 1432,State 1432,121432,,,
E1433,Thomas,Miller,K,Street 1433,City 1433,State 1433,121433,,,
E1434,Jennifer,White,I,Street 1434,City 1434,State 1434,121434,,,
E1435,Charles,Jackson,M,Street 1435,City 1435,State 1435,121435,,,
E1436,Linda,Garcia,R,Street 1436,City 1436,State 1436,121436,,,
E1437,Paul,Wilson,O,Street 1437,City 1437,State 1437,121437,,,
E1438,Jennifer,Taylor,Y,Street 1438,City 1438,State 1438,121438,,,
E1439,Daniel,Williams,L,Street 1439,City 1439,State 1439,121439,,,
E1440,Robert,Johnson,V,Street 1440,City 1440,State 1440,121440,,,
E1441,John,Smith,L,Street 1441,City 1441,State 1441,121441,,,
E1442,Paul,Williams,D,Street 1442,City 1442,State 1442,121442,,,
E1443,Jennifer,White,M,Street 1443,City 1443,State 1443,121443,,,
E1444,Richard,White,D,Street 1444,City 1444,State 1444,121444,,,
E1445,Linda,Johnson,T,Street 1445,City 1445,State 1445,121445,,,
E1446,Michael,Martin,P,Street 1446,City 1446,State 1446,121446,,,
E1447,Paul,Jackson,Z,Street 1447,City 1447,State 1447,121447,,,
E1448,Charles,Thomas,L,Street 1448,City 1448,State 1448,121448,,,
E1449,David,Miller,P,Street 1449,City 1449,State 1449,121449,,,
E1450,Paul,Moore,Q,Street 1450,City 1450,State 1450,121450,,,
E1451,Christopher,Anderson,Q,Street 1451,City 1451,State 1451,121451,,,
E1452,Robert,Wilson,U,Street 1452,City 1452,State 1452,121452,,,
E1453,Mary,Miller,M,Street 1453,City 1453,State 1453,121453,,,
E1454,Barbara,Harris,D,Street 1454,City 1454,State 1454,121454,,,
E1455,Mark,Wilson,F,Street 1455,City 1455,State 1455,121455,,,
E1456,Christopher,Thomas,Z,Street 1456,City 1456,State 1456,121456,,,
E1457,Mary,Moore,P,Street 1457,City 1457,State 1457,121457,,,
E1458,Michael,Thompson,E,Street 1458,City 1458,State 1458,121458,,,
E1459,Christopher,Jones,N,Street 1459,City 1459,State 1459,121459,,,
E1460,Mary,Robinson,Y,Street 1460,City 1460,State 1460,121460,,,
E1461,Mark,Jackson,M,Street 1461,City 1461,State 1461,121461,,,
E1462,Joseph,Harris,V,Street 1462,City 1462,State 1462,121462,,,
E1463,William,Martinez,E,Street 1463,City 1463,State 1463,121463,,,
E1464,Daniel,White,X,Street 1464,City 1464,State 1464,121464,,,
E1465,Mark,Anderson,H,Street 1465,City 1465,State 1465,121465,,,
E1466,Robert,Williams,W,Street 1466,City 1466,State 1466,121466,,,
E1467,Robert,Miller,G,Street 1467,City 1467,State 1467,121467,,,
E1468,Barbara,Anderson,C,Street 1468,City 1468,State 1468,121468,,,
E1469,Mark,Jones,G,Street 1469,City 1469,State 1469,121469,,,
E1470,Richard,Wilson,F,Street 1470,City 1470,State 1470,121470,,,
E1471,David,Brown,V,Street 1471,City 1471,State 1471,121471,,,
E1472,Paul,Harris,N,Street 1472,City 1472,State 1472,121472,,,
E1473,Linda,Smith,M,Street 1473,City 1473,State 1473,121473,,,
E1474,Paul,Martin,D,Street 1474,City 1474,State 1474,121474,,,
E1475,Barbara,White,Q,Street 1475,City 1475,State 1475,121475,,,
E1476,James,Martin,U,Street 1476,City 1476,State 1476,121476,,,
E1477,Mark,Garcia,C,Street 1477,City 1477,State 1477,121477,,,
E1478,Michael,Thomas,Q,Street 1478,City 1478,State 1478,121478,,,
E1479,Mary,Moore,U,Street 1479,City 1479,State 1479,121479,,,
E1480,Joseph,Thompson,E,Street 1480,City 1480,State 1480,121480,,,
E1481,Barbara,Jones,K,Street 1481,City 1481,State 1481,121481,,,
E1482,Thomas,Robinson,D,Street 1482,City 1482,State 1482,121482,,,
E1483,John,Jackson,E,Street 1483,City 1483,State 1483,121483,,,
E1484,Thomas,Taylor,Y,Street 1484,City 1484,State 1484,121484,,,
E1485,Linda,Brown,P,Street 1485,City 1485,State 1485,121485,,,
E1486,David,Davis,I,Street 1486,City 1486,State 1486,121486,,,
E1487,John,Williams,F,Street 1487,City 1487,State 1487,121487,,,
E1488,Michael,Miller,T,Street 1488,City 1488,State 1488,121488,,,
E1489,Paul,Thomas,F,Street 1489,City 1489,State 1489,121489,,,
E1490,Christopher,Johnson,A,Street 1490,City 1490,State 1490,121490,,,
E1491,Paul,Martin,E,Street 1491,City 1491,State 1491,121491,,,
E1492,Mary,Davis,D,Street 1492,City 1492,State 1492,121492,,,
E1493,Richard,Miller,T,Street 1493,City 1493,State 1493,121493,,,
E1494,Thomas,Garcia,G,Street 1494,City 1494,State 1494,121494,,,
E1495,Joseph,Anderson,L,Street 1495,City 1495,State 1495,121495,,,
E1496,John,Thompson,S,Street 1496,City 1496,State 1496,121496,,,
E1497,Richard,Martinez,W,Street 1497,City 1497,State 1497,121497,,,
E1498,Patricia,Williams,E,Street 1498,City 1498,State 1498,121498,,,
E1499,Richard,Robinson,S,Street 1499,City 1499,State 1499,121499,,,
E1500,Patricia,Jackson,U,Street 1500,City 1500,State 1500,121500,,,
E1501,Patricia,Moore,N,Street 1501,City 1501,State 1501,121501,,,
E1502,Daniel,White,U,Street 1502,City 1502,State 1502,121502,,,
E1503,Elizabeth,Johnson,D,Street 1503,City 1503,State 1503,121503,,,
E1504,Linda,Jackson,Z,Street 1504,City 1504,State 1504,121504,,,
E1505,Elizabeth,Johnson,N,Street 1505,City 1505,State 1505,121505,,,
E1506,Richard,Williams,J,Street 1506,City 1506,State 1506,121506,,,
E1507,John,Anderson,H,Street 1507,City 1507,State 1507,121507,,,
E1508,Elizabeth,Williams,L,Street 1508,City 1508,State 1508,121508,,,
E1509,John,Taylor,K,Street 1509,City 1509,State 1509,121509,,,
E1510,Daniel,Johnson,A,Street 1510,City 1510,State 1510,121510,,,
E1511,Patricia,Jackson,L,Street 1511,City 1511,State 1511,121511,,,
E1512,John,Moore,D,Street 1512,City 1512,State 1512,121512,,,
E1513,Mark,Miller,E,Street 1513,City 1513,State 1513,121513,,,
E1514,James,Robinson,U,Street 1514,City 1514,State 1514,121514,,,
E1515,Jennifer,Garcia,X,Street 1515,City 1515,State 1515,121515,,,
E1516,Thomas,Davis,A,Street 1516,City 1516,State 1516,121516,,,
E1517,Mark,Miller,O,Street 1517,City 1517,State 1517,121517,,,
E1518,Michael,Brown,S,Street 1518,City 1518,State 1518,121518,,,
E1519,Patricia,Davis,F,Street 1519,City 1519,State 1519,121519,,,
E1520,Jennifer,Johnson,G,Street 1520,City 1520,State 1520,121520,,,
E1521,Jennifer,Jackson,X,Street 1521,City 1521,State 1521,121521,,,
E1522,Charles,Harris,H,Street 1522,City 1522,State 1522,121522,,,
E1523,Thomas,Thomas,P,Street 1523,City 1523,State 1523,121523,,,
E1524,Barbara,Jackson,P,Street 1524,City 1524,State 1524,121524,,,
E1525,Thomas,Jackson,M,Street 1525,City 1525,State 1525,121525,,,
E1526,Charles,Williams,T,Street 1526,City 1526,State 1526,121526,,,
E1527,Joseph,Robinson,B,Street 1527,City 1527,State 1527,121527,,,
E1528,James,Williams,H,Street 1528,City 1528,State 1528,121528,,,
E1529,Barbara,Harris,O,Street 1529,City 1529,State 1529,121529,,,
E1530,Jennifer,White,Q,Street 1530,City 1530,State 1530,121530,,,
E1531,Mary,White,H,Street 1531,City 1531,State 1531,121531,,,
E1532,Robert,Johnson,Z,Street 1532,City 1532,State 1532,121532,,,
E1533,Charles,Jackson,P,Street 1533,City 1533,State 1533,121533,,,
E1534,James,Wilson,F,Street 1534,City 1534,State 1534,121534,,,
E1535,Christopher,Martinez,V,Street 1535,City 1535,State 1535,121535,,,
E1536,Robert,Miller,Y,Street 1536,City 1536,State 1536,121536,,,
E1537,Mark,Thompson,X,Street 1537,City 1537,State 1537,121537,,,
E1538,Elizabeth,Thompson,B,Street 1538,City 1538,State 1538,121538,,,
E1539,Michael,Thomas,U,Street 1539,City 1539,State 1539,121539,,,
E1540,Barbara,Anderson,M,Street 1540,City 1540,State 1540,121540,,,
E1541,Richard,Harris,D,Street 1541,City 1541,State 1541,121541,,,
E1542,Linda,Thompson,F,Street 1542,City 1542,State 1542,121542,,,
E1543,Christopher,Davis,W,Street 1543,City 1543,State 1543,121543,,,
E1544,Mary,Davis,F,Street 1544,City 1544,State 1544,121544,,,
E1545,Charles,Garcia,D,Street 1545,City 1545,State 1545,121545,,,
E1546,William,Robinson,M,Street 1546,City 1546,State 1546,121546,,,
E1547,Michael,Thompson,H,Street 1547,City 1547,State 1547,121547,,,
E1548,John,Martin,D,Street 1548,City 1548,State 1548,121548,,,
E1549,Robert,Martinez,S,Street 1549,City 1549,State 1549,121549,,,
E1550,Elizabeth,White,G,Street 1550,City 1550,State 1550,121550,,,
E1551,Richard,Johnson,Z,Street 1551,City 1551,State 1551,121551,,,
E1552,Thomas,Harris,W,Street 1552,City 1552,State 1552,121552,,,
E1553,Daniel,Wilson,C,Street 1553,City 1553,State 1553,121553,,,
E1554,Christopher,Thomas,J,Street 1554,City 1554,State 1554,121554,,,
E1555,Paul,Smith,G,Street 1555,City 1555,State 1555,121555,,,
E1556,Jennifer,Davis,G,Street 1556,City 1556,State 1556,121556,,,
E1557,Joseph,Taylor,C,Street 1557,City 1557,State 1557,121557,,,
E1558,Barbara,Thomas,W,Street 1558,City 1558,State 1558,121558,,,
E1559,Mark,Harris,U,Street 1559,City 1559,State 1559,121559,,,
E1560,Patricia,Jackson,M,Street 1560,City 1560,State 1560,121560,,,
E1561,Paul,Smith,N,Street 1561,City 1561,State 1561,121561,,,
E1562,Paul,Anderson,F,Street 1562,City 1562,State 1562,121562,,,
E1563,Linda,Davis,P,Street 1563,City 1563,State 1563,121563,,,
E1564,Daniel,Martinez,E,Street 1564,City 1564,State 1564,121564,,,
E1565,Robert,Martin,F,Street 1565,City 1565,State 1565,121565,,,
E1566,Richard,Harris,M,Street 1566,City 1566,State 1566,121566,,,
E1567,Christopher,Brown,Y,Street 1567,City 1567,State 1567,121567,,,
E1568,Barbara,Martinez,N,Street 1568,City 1568,State 1568,121568,,,
E1569,Christopher,Martin,F,Street 1569,City 1569,State 1569,121569,,,
E1570,Richard,Miller,V,Street 1570,City 1570,State 1570,121570,,,
E1571,Mark,Jones,W,Street 1571,City 1571,State 1571,121571,,,
E1572,Richard,Robinson,K,Street 1572,City 1572,State 1572,121572,,,
E1573,Christopher,Jackson,S,Street 1573,City 1573,State 1573,121573,,,
E1574,Michael,Wilson,P,Street 1574,City 1574,State 1574,121574,,,
E1575,Richard,Anderson,J,Street 1575,City 1575,State 1575,121575,,,
E1576,Patricia,Martinez,D,Street 1576,City 1576,State 1576,121576,,,
E1577,James,Thomas,I,Street 1577,City 1577,State 1577,121577,,,
E1578,Jennifer,Miller,G,Street 1578,City 1578,State 1578,121578,,,
E1579,Joseph,Martinez,B,Street 1579,City 1579,State 1579,121579,,,
E1580,Barbara,Miller,K,Street 1580,City 1580,State 1580,121580,,,
E1581,Thomas,Jones,O,Street 1581,City 1581,State 1581,121581,,,
E1582,Richard,Anderson,N,Street 1582,City 1582,State 1582,121582,,,
E1583,Daniel,Williams,D,Street 1583,City 1583,State 1583,121583,,,
E1584,Joseph,Miller,N,Street 1584,City 1584,State 1584,121584,,,
E1585,Robert,White,B,Street 1585,City 1585,State 1585,121585,,,
E1586,Joseph,Brown,Y,Street 1586,City 1586,State 1586,121586,,,
E1587,Christopher,Davis,N,Street 1587,City 1587,State 1587,121587,,,
E1588,Elizabeth,Davis,V,Street 1588,City 1588,State 1588,121588,,,
E1589,Michael,Martin,S,Street 1589,City 1589,State 1589,121589,,,
E1590,Mary,Taylor,A,Street 1590,City 1590,State 1590,121590,,,
E1591,Christopher,Robinson,E,Street 1591,City 1591,State 1591,121591,,,
E1592,Michael,Wilson,S,Street 1592,City 1592,State 1592,121592,,,
E1593,Linda,Jones,W,Street 1593,City 1593,State 1593,121593,,,
E1594,Paul,White,E,Street 1594,City 1594,State 1594,121594,,,
E1595,David,Thompson,W,Street 1595,City 1595,State 1595,121595,,,
E1596,Richard,Davis,C,Street 1596,City 1596,State 1596,121596,,,
E1597,David,Martinez,J,Street 1597,City 1597,State 1597,121597,,,
E1598,Paul,Thompson,P,Street 1598,City 1598,State 1598,121598,,,
E1599,Christopher,Smith,J,Street 1599,City 1599,State 1599,121599,,,
E1600,David,Davis,V,Street 1600,City 1600,State 1600,121600,,,
E1601,Richard,Garcia,V,Street 1601,City 1601,State 1601,121601,,,
E1602,Thomas,Smith,F,Street 1602,City 1602,State 1602,121602,,,
E1603,William,White,K,Street 1603,City 1603,State 1603,121603,,,
E1604,Robert,Anderson,C,Street 1604,City 1604,State 1604,121604,,,
E1605,David,Thompson,X,Street 1605,City 1605,State 1605,121605,,,
E1606,Michael,Jones,F,Street 1606,City 1606,State 1606,121606,,,
E1607,Mary,Anderson,C,Street 1607,City 1607,State 1607,121607,,,
E1608,Christopher,Miller,Y,Street 1608,City 1608,State 1608,121608,,,
E1609,Mary,Robinson,Y,Street 1609,City 1609,State 1609,121609,,,
E1610,Patricia,Miller,F,Street 1610,City 1610,State 1610,121610,,,
E1611,Richard,White,B,Street 1611,City 1611,State 1611,121611,,,
E1612,Mary,Brown,C,Street 1612,City 1612,State 1612,121612,,,
E1613,Charles,Taylor,U,Street 1613,City 1613,State 1613,121613,,,
E1614,Paul,Jackson,H,Street 1614,City 1614,State 1614,121614,,,
E1615,Elizabeth,Martinez,D,Street 1615,City 1615,State 1615,121615,,,
E1616,Paul,Johnson,I,Street 1616,City 1616,State 1616,121616,,,
E1617,James,Miller,W,Street 1617,City 1617,State 1617,121617,,,
E1618,Robert,Martinez,E,Street 1618,City 1618,State 1618,121618,,,
E1619,John,Jones,E,Street 1619,City 1619,State 1619,121619,,,
E1620,Jennifer,Harris,M,Street 1620,City 1620,State 1620,121620,,,
E1621,Michael,Williams,E,Street 1621,City 1621,State 1621,121621,,,
E1622,William,Miller,K,Street 1622,City 1622,State 1622,121622,,,
E1623,Richard,Martin,X,Street 1623,City 1623,State 1623,121623,,,
E1624,Michael,Jackson,N,Street 1624,City 1624,State 1624,121624,,,
E1625,Joseph,Anderson,L,Street 1625,City 1625,State 1625,121625,,,
E1626,Patricia,Wilson,N,Street 1626,City 1626,State 1626,121626,,,
E1627,Elizabeth,Wilson,W,Street 1627,City 1627,State 1627,121627,,,
E1628,Daniel,Anderson,V,Street 1628,City 1628,State 1628,121628,,,
E1629,Jennifer,Thomas,Y,Street 1629,City 1629,State 1629,121629,,,
E1630,Robert,Thomas,S,Street 1630,City 1630,State 1630,121630,,,
E1631,Christopher,Martin,V,Street 1631,City 1631,State 1631,121631,,,
E1632,Daniel,Smith,E,Street 1632,City 1632,State 1632,121632,,,
E1633,Michael,Wilson,Y,Street 1633,City 1633,State 1633,121633,,,
E1634,John,Anderson,O,Street 1634,City 1634,State 1634,121634,,,
E1635,Patricia,Robinson,C,Street 1635,City 1635,State 1635,121635,,,
E1636,James,Thomas,L,Street 1636,City 1636,State 1636,121636,,,
E1637,Patricia,Taylor,V,Street 1637,City 1637,State 1637,121637,,,
E1638,Charles,Brown,J,Street 1638,City 1638,State 1638,121638,,,
E1639,Mary,Jones,X,Street 1639,City 1639,State 1639,121639,,,
E1640,Mary,Miller,M,Street 1640,City 1640,State 1640,121640,,,
E1641,Elizabeth,Martinez,G,Street 1641,City 1641,State 1641,121641,,,
E1642,Barbara,White,G,Street 1642,City 1642,State 1642,121642,,,
E1643,Elizabeth,Garcia,Q,Street 1643,City 1643,State 1643,121643,,,
E1644,Mark,Martinez,E,Street 1644,City 1644,State 1644,121644,,,
E1645,Charles,Anderson,D,Street 1645,City 1645,State 1645,121645,,,
E1646,Joseph,Anderson,S,Street 1646,City 1646,State 1646,121646,,,
E1647,Elizabeth,Johnson,E,Street 1647,City 1647,State 1647,121647,,,
E1648,Daniel,Anderson,L,Street 1648,City 1648,State 1648,121648,,,
E1649,Robert,Martin,Q,Street 1649,City 1649,State 1649,121649,,,
E1650,John,Robinson,Y,Street 1650,City 1650,State 1650,121650,,,
E1651,Thomas,Garcia,W,Street 1651,City 1651,State 1651,121651,,,
E1652,Daniel,Jackson,O,Street 1652,City 1652,State 1652,121652,,,
E1653,John,Anderson,K,Street 1653,City 1653,State 1653,121653,,,
E1654,Linda,Wilson,I,Street 1654,City 1654,State 1654,121654,,,
E1655,Mark,Martin,V,Street 1655,City 1655,State 1655,121655,,,
E1656,James,Davis,J,Street 1656,City 1656,State 1656,121656,,,
E1657,Barbara,Brown,M,Street 1657,City 1657,State 1657,121657,,,
E1658,Elizabeth,Robinson,A,Street 1658,City 1658,State 1658,121658,,,
E1659,David,Williams,U,Street 1659,City 1659,State 1659,121659,,,
E1660,Jennifer,Jones,U,Street 1660,City 1660,State 1660,121660,,,
E1661,Elizabeth,Harris,R,Street 1661,City 1661,State 1661,121661,,,
E1662,Daniel,Anderson,G,Street 1662,City 1662,State 1662,121662,,,
E1663,David,Thomas,U,Street 1663,City 1663,State 1663,121663,,,
E1664,Barbara,Davis,E,Street 1664,City 1664,State 1664,121664,,,
E1665,John,Williams,Y,Street 1665,City 1665,State 1665,121665,,,
E1666,Elizabeth,Williams,F,Street 1666,City 1666,State 1666,121666,,,
E1667,William,Thompson,L,Street 1667,City 1667,State 1667,121667,,,
E1668,Daniel,Harris,L,Street 1668,City 1668,State 1668,121668,,,
E1669,Daniel,Johnson,O,Street 1669,City 1669,State 1669,121669,,,
E1670,Patricia,Smith,T,Street 1670,City 1670,State 1670,121670,,,
E1671,David,Robinson,M,Street 1671,City 1671,State 1671,121671,,,
E1672,Jennifer,Harris,Z,Street 1672,City 1672,State 1672,121672,,,
E1673,Mary,Johnson,N,Street 1673,City 1673,State 1673,121673,,,
E1674,James,Thompson,U,Street 1674,City 1674,State 1674,121674,,,
E1675,Michael,Garcia,X,Street 1675,City 1675,State 1675,121675,,,
E1676,Robert,Thompson,A,Street 1676,City 1676,State 1676,121676,,,
E1677,Richard,Johnson,W,Street 1677,City 1677,State 1677,121677,,,
E1678,Daniel,Garcia,P,Street 1678,City 1678,State 1678,121678,,,
E1679,Mary,Jackson,R,Street 1679,City 1679,State 1679,121679,,,
E1680,Daniel,Jones,S,Street 1680,City 1680,State 1680,121680,,,
E1681,Thomas,Anderson,R,Street 1681,City 1681,State 1681,121681,,,
E1682,Jennifer,Taylor,K,Street 1682,City 1682,State 1682,121682,,,
E1683,Jennifer,Harris,M,Street 1683,City 1683,State 1683,121683,,,
E1684,Thomas,Martin,H,Street 1684,City 1684,State 1684,121684,,,
E1685,David,Robinson,E,Street 1685,City 1685,State 1685,121685,,,
E1686,Mary,Williams,Z,Street 1686,City 1686,State 1686,121686,,,
E1687,Mary,Taylor,C,Street 1687,City 1687,State 1687,121687,,,
E1688,John,Brown,Y,Street 1688,City 1688,State 1688,121688,,,
E1689,Barbara,Taylor,P,Street 1689,City 1689,State 1689,121689,,,
E1690,Richard,Brown,T,Street 1690,City 1690,State 1690,121690,,,
E1691,Robert,Martin,H,Street 1691,City 1691,State 1691,121691,,,
E1692,Paul,Martin,U,Street 1692,City 1692,State 1692,121692,,,
E1693,Mary,Martin,N,Street 1693,City 1693,State 1693,121693,,,
E1694,Barbara,Davis,H,Street 1694,City 1694,State 1694,121694,,,
E1695,Jennifer,Thomas,G,Street 1695,City 1695,State 1695,121695,,,
E1696,Michael,Martin,J,Street 1696,City 1696,State 1696,121696,,,
E1697,Michael,Smith,V,Street 1697,City 1697,State 1697,121697,,,
E1698,William,Williams,B,Street 1698,City 1698,State 1698,121698,,,
E1699,Mary,Thompson,N,Street 1699,City 1699,State 1699,121699,,,
E1700,Daniel,Brown,U,Street 1700,City 1700,State 1700,121700,,,
E1701,Patricia,Miller,O,Street 1701,City 1701,State 1701,121701,,,
E1702,Paul,Williams,I,Street 1702,City 1702,State 1702,121702,,,
E1703,Christopher,Wilson,C,Street 1703,City 1703,State 1703,121703,,,
E1704,Robert,Johnson,J,Street 1704,City 1704,State 1704,121704,,,
E1705,Charles,Johnson,Y,Street 1705,City 1705,State 1705,121705,,,
E1706,Christopher,Brown,S,Street 1706,City 1706,State 1706,121706,,,
E1707,James,Moore,S,Street 1707,City 1707,State 1707,121707,,,
E1708,Paul,White,V,Street 1708,City 1708,State 1708,121708,,,
E1709,Mark,Garcia,Q,Street 1709,City 1709,State 1709,121709,,,
E1710,Richard,White,V,Street 1710,City 1710,State 1710,121710,,,
E1711,Michael,Brown,E,Street 1711,City 1711,State 1711,121711,,,
E1712,Barbara,Johnson,H,Street 1712,City 1712,State 1712,121712,,,
E1713,James,White,Q,Street 1713,City 1713,State 1713,121713,,,
E1714,Robert,Martin,S,Street 1714,City 1714,State 1714,121714,,,
E1715,Joseph,Jones,T,Street 1715,City 1715,State 1715,121715,,,
E1716,Charles,Thompson,A,Street 1716,City 1716,State 1716,121716,,,
E1717,Robert,Thompson,K,Street 1717,City 1717,State 1717,121717,,,
E1718,Paul,Jackson,C,Street 1718,City 1718,State 1718,121718,,,
E1719,Linda,Anderson,Y,Street 1719,City 1719,State 1719,121719,,,
E1720,David,Garcia,Q,Street 1720,City 1720,State 1720,121720,,,
E1721,Michael,Johnson,V,Street 1721,City 1721,State 1721,121721,,,
E1722,David,Martin,X,Street 1722,City 1722,State 1722,121722,,,
E1723,Christopher,Thompson,O,Street 1723,City 1723,State 1723,121723,,,
E1724,William,Martinez,I,Street 1724,City 1724,State 1724,121724,,,
E1725,Jennifer,Moore,N,Street 1725,City 1725,State 1725,121725,,,
E1726,Barbara,Thompson,I,Street 1726,City 1726,State 1726,121726,,,
E1727,Daniel,Martinez,E,Street 1727,City 1727,State 1727,121727,,,
E1728,Michael,Martin,V,Street 1728,City 1728,State 1728,121728,,,
E1729,William,Moore,I,Street 1729,City 1729,State 1729,121729,,,
E1730,Mary,Harris,F,Street 1730,City 1730,State 1730,121730,,,
E1731,Paul,Garcia,G,Street 1731,City 1731,State 1731,121731,,,
E1732,Linda,Brown,A,Street 1732,City 1732,State 1732,121732,,,
E1733,Patricia,Thompson,V,Street 1733,City 1733,State 1733,121733,,,
E1734,Robert,Johnson,U,Street 1734,City 1734,State 1734,121734,,,
E1735,Charles,Johnson,E,Street 1735,City 1735,State 1735,121735,,,
E1736,Jennifer,Thompson,Z,Street 1736,City 1736,State 1736,121736,,,
E1737,David,Thomas,Y,Street 1737,City 1737,State 1737,121737,,,
E1738,Joseph,Harris,S,Street 1738,City 1738,State 1738,121738,,,
E1739,William,Robinson,D,Street 1739,City 1739,State 1739,121739,,,
E1740,Patricia,Jones,W,Street 1740,City 1740,State 1740,121740,,,
E1741,Paul,Smith,T,Street 1741,City 1741,State 1741,121741,,,
E1742,John,White,Z,Street 1742,City 1742,State 1742,121742,,,
E1743,John,Brown,U,Street 1743,City 1743,State 1743,121743,,,
E1744,Elizabeth,Wilson,W,Street 1744,City 1744,State 1744,121744,,,
E1745,Barbara,Martin,Y,Street 1745,City 1745,State 1745,121745,,,
E1746,Mark,Martin,U,Street 1746,City 1746,State 1746,121746,,,
E1747,Mark,Johnson,I,Street 1747,City 1747,State 1747,121747,,,
E1748,Paul,Anderson,C,Street 1748,City 1748,State 1748,121748,,,
E1749,Thomas,Thompson,B,Street 1749,City 1749,State 1749,121749,,,
E1750,Christopher,Moore,H,Street 1750,City 1750,State 1750,121750,,,
E1751,Thomas,Brown,H,Street 1751,City 1751,State 1751,121751,,,
E1752,William,Davis,Z,Street 1752,City 1752,State 1752,121752,,,
E1753,Mary,Wilson,F,Street 1753,City 1753,State 1753,121753,,,
E1754,James,Miller,P,Street 1754,City 1754,State 1754,121754,,,
E1755,Elizabeth,Smith,J,Street 1755,City 1755,State 1755,121755,,,
E1756,Mark,Martinez,D,Street 1756,City 1756,State 1756,121756,,,
E1757,Christopher,Martin,E,Street 1757,City 1757,State 1757,121757,,,
E1758,Jennifer,Jackson,S,Street 1758,City 1758,State 1758,121758,,,
E1759,John,Williams,N,Street 1759,City 1759,State 1759,121759,,,
E1760,Robert,Martin,Y,Street 1760,City 1760,State 1760,121760,,,
E1761,Charles,Davis,D,Street 1761,City 1761,State 1761,121761,,,
E1762,Barbara,Anderson,L,Street 1762,City 1762,State 1762,121762,,,
E1763,Linda,Martin,U,Street 1763,City 1763,State 1763,121763,,,
E1764,Elizabeth,Martin,C,Street 1764,City 1764,State 1764,121764,,,
E1765,Joseph,White,C,Street 1765,City 1765,State 1765,121765,,,
E1766,Mark,Thomas,A,Street 1766,City 1766,State 1766,121766,,,
E1767,Jennifer,Jones,V,Street 1767,City 1767,State 1767,121767,,,
E1768,Michael,Jones,K,Street 1768,City 1768,State 1768,121768,,,
E1769,Elizabeth,Brown,O,Street 1769,City 1769,State 1769,121769,,,
E1770,Charles,Wilson,I,Street 1770,City 1770,State 1770,121770,,,
E1771,Richard,Martin,P,Street 1771,City 1771,State 1771,121771,,,
E1772,Thomas,Taylor,D,Street 1772,City 1772,State 1772,121772,,,
E1773,Jennifer,Jones,X,Street 1773,City 1773,State 1773,121773,,,
E1774,Daniel,Johnson,R,Street 1774,City 1774,State 1774,121774,,,
E1775,Mark,Thomas,J,Street 1775,City 1775,State 1775,121775,,,
E1776,Jennifer,Moore,Y,Street 1776,City 1776,State 1776,121776,,,
E1777,Jennifer,Moore,D,Street 1777,City 1777,State 1777,121777,,,
E1778,Paul,Jackson,H,Street 1778,City 1778,State 1778,121778,,,
E1779,Mary,Anderson,N,Street 1779,City 1779,State 1779,121779,,,
E1780,Daniel,Robinson,X,Street 1780,City 1780,State 1780,121780,,,
E1781,John,Wilson,R,Street 1781,City 1781,State 1781,121781,,,
E1782,Linda,Martinez,E,Street 1782,City 1782,State 1782,121782,,,
E1783,Daniel,Garcia,J,Street 1783,City 1783,State 1783,121783,,,
E1784,Linda,Jackson,L,Street 1784,City 1784,State 1784,121784,,,
E1785,Richard,Anderson,A,Street 1785,City 1785,State 1785,121785,,,
E1786,Barbara,Taylor,M,Street 1786,City 1786,State 1786,121786,,,
E1787,Linda,Taylor,X,Street 1787,City 1787,State 1787,121787,,,
E1788,Daniel,Davis,O,Street 1788,City 1788,State 1788,121788,,,
E1789,John,Anderson,C,Street 1789,City 1789,State 1789,121789,,,
E1790,Christopher,Davis,C,Street 1790,City 1790,State 1790,121790,,,
E1791,Thomas,Wilson,M,Street 1791,City 1791,State 1791,121791,,,
E1792,Michael,Smith,J,Street 1792,City 1792,State 1792,121792,,,
E1793,Richard,Thompson,G,Street 1793,City 1793,State 1793,121793,,,
E1794,Barbara,Anderson,X,Street 1794,City 1794,State 1794,121794,,,
E1795,Michael,Garcia,K,Street 1795,City 1795,State 1795,121795,,,
E1796,Michael,Jackson,X,Street 1796,City 1796,State 1796,121796,,,
E1797,Linda,Davis,K,Street 1797,City 1797,State 1797,121797,,,
E1798,Patricia,Johnson,R,Street 1798,City 1798,State 1798,121798,,,
E1799,Robert,Williams,F,Street 1799,City 1799,State 1799,121799,,,
E1800,Mary,Martin,M,Street 1800,City 1800,State 1800,121800,,,
E1801,David,Davis,W,Street 1801,City 1801,State 1801,121801,,,
E1802,Daniel,Taylor,X,Street 1802,City 1802,State 1802,121802,,,
E1803,Michael,Thompson,T,Street 1803,City 1803,State 1803,121803,,,
E1804,Charles,Thomas,G,Street 1804,City 1804,State 1804,121804,,,
E1805,David,Harris,D,Street 1805,City 1805,State 1805,121805,,,
E1806,Daniel,Martinez,S,Street 1806,City 1806,State 1806,121806,,,
E1807,Linda,Thomas,A,Street 1807,City 1807,State 1807,121807,,,
E1808,James,Williams,B,Street 1808,City 1808,State 1808,121808,,,
E1809,Barbara,Davis,F,Street 1809,City 1809,State 1809,121809,,,
E1810,Elizabeth,Taylor,Z,Street 1810,City 1810,State 1810,121810,,,
E1811,Richard,Thompson,G,Street 1811,City 1811,State 1811,121811,,,
E1812,William,Jackson,S,Street 1812,City 1812,State 1812,121812,,,
E1813,Michael,Martin,O,Street 1813,City 1813,State 1813,121813,,,
E1814,Mark,Brown,D,Street 1814,City 1814,State 1814,121814,,,
E1815,Robert,Thomas,V,Street 1815,City 1815,State 1815,121815,,,
E1816,William,Miller,T,Street 1816,City 1816,State 1816,121816,,,
E1817,Jennifer,Robinson,H,Street 1817,City 1817,State 1817,121817,,,
E1818,James,Smith,L,Street 1818,City 1818,State 1818,121818,,,
E1819,John,Harris,S,Street 1819,City 1819,State 1819,121819,,,
E1820,William,White,E,Street 1820,City 1820,State 1820,121820,,,
E1821,William,Smith,A,Street 1821,City 1821,State 1821,121821,,,
E1822,Thomas,Miller,P,Street 1822,City 1822,State 1822,121822,,,
E1823,Mary,Taylor,K,Street 1823,City 1823,State 1823,121823,,,
E1824,Paul,Wilson,Q,Street 1824,City 1824,State 1824,121824,,,
E1825,Elizabeth,Taylor,E,Street 1825,City 1825,State 1825,121825,,,
E1826,Daniel,Martin,N,Street 1826,City 1826,State 1826,121826,,,
E1827,Thomas,Martin,M,Street 1827,City 1827,State 1827,121827,,,
E1828,Paul,Martin,N,Street 1828,City 1828,State 1828,121828,,,
E1829,William,Thompson,G,Street 1829,City 1829,State 1829,121829,,,
E1830,Jennifer,Williams,X,Street 1830,City 1830,State 1830,121830,,,
E1831,Robert,Wilson,Y,Street 1831,City 1831,State 1831,121831,,,
E1832,Robert,Martinez,G,Street 1832,City 1832,State 1832,121832,,,
E1833,Daniel,Jones,S,Street 1833,City 1833,State 1833,121833,,,
E1834,Michael,Robinson,B,Street 1834,City 1834,State 1834,121834,,,
E1835,Daniel,Martinez,O,Street 1835,City 1835,State 1835,121835,,,
E1836,Jennifer,White,I,Street 1836,City 1836,State 1836,121836,,,
E1837,Joseph,Jones,B,Street 1837,City 1837,State 1837,121837,,,
E1838,Elizabeth,Robinson,V,Street 1838,City 1838,State 1838,121838,,,
E1839,Joseph,Brown,R,Street 1839,City 1839,State 1839,121839,,,
E1840,Barbara,Jones,U,Street 1840,City 1840,State 1840,121840,,,
E1841,Patricia,Miller,E,Street 1841,City 1841,State 1841,121841,,,
E1842,Thomas,Taylor,C,Street 1842,City 1842,State 1842,121842,,,
E1843,Daniel,Brown,H,Street 1843,City 1843,State 1843,121843,,,
E1844,Joseph,Wilson,G,Street 1844,City 1844,State 1844,121844,,,
E1845,Thomas,Jones,E,Street 1845,City 1845,State 1845,121845,,,
E1846,John,Williams,V,Street 1846,City 1846,State 1846,121846,,,
E1847,Charles,Thomas,Z,Street 1847,City 1847,State 1847,121847,,,
E1848,Joseph,Anderson,Z,Street 1848,City 1848,State 1848,121848,,,
E1849,William,Robinson,F,Street 1849,City 1849,State 1849,121849,,,
E1850,Jennifer,White,J,Street 1850,City 1850,State 1850,121850,,,
E1851,Barbara,Davis,S,Street 1851,City 1851,State 1851,121851,,,
E1852,Elizabeth,Thompson,E,Street 1852,City 1852,State 1852,121852,,,
E1853,James,Jackson,K,Street 1853,City 1853,State 1853,121853,,,
E1854,William,Johnson,U,Street 1854,City 1854,State 1854,121854,,,
E1855,Patricia,Jackson,Y,Street 1855,City 1855,State 1855,121855,,,
E1856,Barbara,Harris,B,Street 1856,City 1856,State 1856,121856,,,
E1857,Thomas,Williams,Q,Street 1857,City 1857,State 1857,121857,,,
E1858,Thomas,Thomas,E,Street 1858,City 1858,State 1858,121858,,,
E1859,Joseph,Garcia,D,Street 1859,City 1859,State 1859,121859,,,
E1860,Linda,Thompson,V,Street 1860,City 1860,State 1860,121860,,,
E1861,John,Thomas,C,Street 1861,City 1861,State 1861,121861,,,
E1862,Daniel,Taylor,Y,Street 1862,City 1862,State 1862,121862,,,
E1863,Jennifer,Taylor,N,Street 1863,City 1863,State 1863,121863,,,
E1864,Richard,Martin,P,Street 1864,City 1864,State 1864,121864,,,
E1865,Michael,Miller,G,Street 1865,City 1865,State 1865,121865,,,
E1866,Robert,Smith,Y,Street 1866,City 1866,State 1866,121866,,,
E1867,Michael,Thomas,B,Street 1867,City 1867,State 1867,121867,,,
E1868,Paul,Johnson,Q,Street 1868,City 1868,State 1868,121868,,,
E1869,Jennifer,Thomas,N,Street 1869,City 1869,State 1869,121869,,,
E1870,Robert,Davis,I,Street 1870,City 1870,State 1870,121870,,,
E1871,Elizabeth,Wilson,X,Street 1871,City 1871,State 1871,121871,,,
E1872,James,Williams,J,Street 1872,City 1872,State 1872,121872,,,
E1873,Jennifer,Johnson,V,Street 1873,City 1873,State 1873,121873,,,
E1874,Joseph,Moore,Q,Street 1874,City 1874,State 1874,121874,,,
E1875,Robert,Jackson,Y,Street 1875,City 1875,State 1875,121875,,,
E1876,David,Harris,Z,Street 1876,City 1876,State 1876,121876,,,
E1877,William,Garcia,O,Street 1877,City 1877,State 1877,121877,,,
E1878,David,White,Q,Street 1878,City 1878,State 1878,121878,,,
E1879,Jennifer,White,G,Street 1879,City 1879,State 1879,121879,,,
E1880,Joseph,Martin,N,Street 1880,City 1880,State 1880,121880,,,
E1881,Paul,Harris,X,Street 1881,City 1881,State 1881,121881,,,
E1882,Barbara,Martin,A,Street 1882,City 1882,State 1882,121882,,,
E1883,John,Harris,C,Street 1883,City 1883,State 1883,121883,,,
E1884,Elizabeth,Brown,O,Street 1884,City 1884,State 1884,121884,,,
E1885,Thomas,Wilson,E,Street 1885,City 1885,State 1885,121885,,,
E1886,Joseph,White,W,Street 1886,City 1886,State 1886,121886,,,
E1887,Joseph,Robinson,T,Street 1887,City 1887,State 1887,121887,,,
E1888,James,Miller,L,Street 1888,City 1888,State 1888,121888,,,
E1889,Linda,Davis,C,Street 1889,City 1889,State 1889,121889,,,
E1890,Mark,Martin,X,Street 1890,City 1890,State 1890,121890,,,
E1891,Charles,Thomas,P,Street 1891,City 1891,State 1891,121891,,,
E1892,David,Davis,J,Street 1892,City 1892,State 1892,121892,,,
E1893,David,Wilson,D,Street 1893,City 1893,State 1893,121893,,,
E1894,Charles,Davis,J,Street 1894,City 1894,State 1894,121894,,,
E1895,Jennifer,Thompson,S,Street 1895,City 1895,State 1895,121895,,,
E1896,Robert,Davis,K,Street 1896,City 1896,State 1896,121896,,,
E1897,James,Harris,K,Street 1897,City 1897,State 1897,121897,,,
E1898,Daniel,Harris,S,Street 1898,City 1898,State 1898,121898,,,
E1899,Mary,Wilson,Z,Street 1899,City 1899,State 1899,121899,,,
E1900,David,Davis,T,Street 1900,City 1900,State 1900,121900,,,
E1901,Mary,Harris,I,Street 1901,City 1901,State 1901,121901,,,
E1902,Paul,Smith,P,Street 1902,City 1902,State 1902,121902,,,
E1903,Mary,Miller,Y,Street 1903,City 1903,State 1903,121903,,,
E1904,David,Martin,F,Street 1904,City 1904,State 1904,121904,,,
E1905,Linda,Martin,A,Street 1905,City 1905,State 1905,121905,,,
E1906,Charles,Garcia,I,Street 1906,City 1906,State 1906,121906,,,
E1907,Paul,Martinez,B,Street 1907,City 1907,State 1907,121907,,,
E1908,Mary,White,U,Street 1908,City 1908,State 1908,121908,,,
E1909,Elizabeth,Garcia,E,Street 1909,City 1909,State 1909,121909,,,
E1910,Elizabeth,Brown,M,Street 1910,City 1910,State 1910,121910,,,
E1911,Christopher,Moore,E,Street 1911,City 1911,State 1911,121911,,,
E1912,Jennifer,Davis,F,Street 1912,City 1912,State 1912,121912,,,
E1913,Patricia,Taylor,O,Street 1913,City 1913,State 1913,121913,,,
E1914,Thomas,Martin,I,Street 1914,City 1914,State 1914,121914,,,
E1915,Barbara,Taylor,B,Street 1915,City 1915,State 1915,121915,,,
E1916,Daniel,Martinez,Z,Street 1916,City 1916,State 1916,121916,,,
E1917,Robert,Harris,W,Street 1917,City 1917,State 1917,121917,,,
E1918,Michael,Martinez,O,Street 1918,City 1918,State 1918,121918,,,
E1919,Jennifer,Garcia,L,Street 1919,City 1919,State 1919,121919,,,
E1920,Robert,Martin,Q,Street 1920,City 1920,State 1920,121920,,,
E1921,Christopher,Moore,B,Street 1921,City 1921,State 1921,121921,,,
E1922,Daniel,Wilson,I,Street 1922,City 1922,State 1922,121922,,,
E1923,Jennifer,Martinez,U,Street 1923,City 1923,State 1923,121923,,,
E1924,Thomas,Taylor,P,Street 1924,City 1924,State 1924,121924,,,
E1925,Paul,Brown,B,Street 1925,City 1925,State 1925,121925,,,
E1926,Elizabeth,Robinson,Z,Street 1926,City 1926,State 1926,121926,,,
E1927,Mark,Johnson,S,Street 1927,City 1927,State 1927,121927,,,
E1928,Daniel,Brown,Q,Street 1928,City 1928,State 1928,121928,,,
E1929,William,Brown,M,Street 1929,City 1929,State 1929,121929,,,
E1930,Barbara,Miller,G,Street 1930,City 1930,State 1930,121930,,,
E1931,Richard,Martinez,Q,Street 1931,City 1931,State 1931,121931,,,
E1932,Joseph,Harris,A,Street 1932,City 1932,State 1932,121932,,,
E1933,Daniel,White,Y,Street 1933,City 1933,State 1933,121933,,,
E1934,Patricia,Brown,K,Street 1934,City 1934,State 1934,121934,,,
E1935,Michael,Smith,P,Street 1935,City 1935,State 1935,121935,,,
E1936,Mary,Martinez,P,Street 1936,City 1936,State 1936,121936,,,
E1937,Michael,Thompson,R,Street 1937,City 1937,State 1937,121937,,,
E1938,Mark,Thomas,Y,Street 1938,City 1938,State 1938,121938,,,
E1939,Thomas,Garcia,D,Street 1939,City 1939,State 1939,121939,,,
E1940,James,Thomas,M,Street 1940,City 1940,State 1940,121940,,,
E1941,William,Robinson,K,Street 1941,City 1941,State 1941,121941,,,
E1942,Elizabeth,Moore,D,Street 1942,City 1942,State 1942,121942,,,
E1943,Elizabeth,Brown,U,Street 1943,City 1943,State 1943,121943,,,
E1944,Mark,Martin,A,Street 1944,City 1944,State 1944,121944,,,
E1945,William,Martinez,B,Street 1945,City 1945,State 1945,121945,,,
E1946,Mark,Jones,Z,Street 1946,City 1946,State 1946,121946,,,
E1947,Joseph,Wilson,U,Street 1947,City 1947,State 1947,121947,,,
E1948,Robert,Davis,J,Street 1948,City 1948,State 1948,121948,,,
E1949,John,Martin,F,Street 1949,City 1949,State 1949,121949,,,
E1950,Mary,Thompson,V,Street 1950,City 1950,State 1950,121950,,,
E1951,Linda,Johnson,U,Street 1951,City 1951,State 1951,121951,,,
E1952,John,Robinson,F,Street 1952,City 1952,State 1952,121952,,,
E1953,Michael,Garcia,L,Street 1953,City 1953,State 1953,121953,,,
E1954,James,Martin,G,Street 1954,City 1954,State 1954,121954,,,
E1955,James,Smith,E,Street 1955,City 1955,State 1955,121955,,,
E1956,John,Garcia,J,Street 1956,City 1956,State 1956,121956,,,
E1957,James,Miller,S,Street 1957,City 1957,State 1957,121957,,,
E1958,Paul,Taylor,Z,Street 1958,City 1958,State 1958,121958,,,
E1959,Michael,Thomas,T,Street 1959,City 1959,State 1959,121959,,,
E1960,Charles,Martin,O,Street 1960,City 1960,State 1960,121960,,,
E1961,Mary,Moore,Q,Street 1961,City 1961,State 1961,121961,,,
E1962,James,Anderson,P,Street 1962,City 1962,State 1962,121962,,,
E1963,Mary,Harris,M,Street 1963,City 1963,State 1963,121963,,,
E1964,Linda,Harris,G,Street 1964,City 1964,State 1964,121964,,,
E1965,Elizabeth,Harris,G,Street 1965,City 1965,State 1965,121965,,,
E1966,John,Martin,D,Street 1966,City 1966,State 1966,121966,,,
E1967,Charles,Thompson,M,Street 1967,City 1967,State 1967,121967,,,
E1968,Robert,Jackson,Z,Street 1968,City 1968,State 1968,121968,,,
E1969,Robert,Thompson,O,Street 1969,City 1969,State 1969,121969,,,
E1970,Mark,Brown,H,Street 1970,City 1970,State 1970,121970,,,
E1971,Charles,Moore,T,Street 1971,City 1971,State 1971,121971,,,
E1972,John,Moore,G,Street 1972,City 1972,State 1972,121972,,,
E1973,Christopher,White,Z,Street 1973,City 1973,State 1973,121973,,,
E1974,Robert,Wilson,R,Street 1974,City 1974,State 1974,121974,,,
E1975,Richard,Davis,K,Street 1975,City 1975,State 1975,121975,,,
E1976,Christopher,Wilson,E,Street 1976,City 1976,State 1976,121976,,,
E1977,Daniel,Thompson,Z,Street 1977,City 1977,State 1977,121977,,,
E1978,William,Robinson,Q,Street 1978,City 1978,State 1978,121978,,,
E1979,Mary,Johnson,L,Street 1979,City 1979,State 1979,121979,,,
E1980,Daniel,Robinson,R,Street 1980,City 1980,State 1980,121980,,,
E1981,John,Wilson,D,Street 1981,City 1981,State 1981,121981,,,
E1982,Paul,Moore,O,Street 1982,City 1982,State 1982,121982,,,
E1983,Robert,Johnson,G,Street 1983,City 1983,State 1983,121983,,,
E1984,John,Brown,Q,Street 1984,City 1984,State 1984,121984,,,
E1985,Daniel,Thomas,X,Street 1985,City 1985,State 1985,121985,,,
E1986,Michael,Jones,H,Street 1986,City 1986,State 1986,121986,,,
E1987,Richard,Robinson,C,Street 1987,City 1987,State 1987,121987,,,
E1988,Richard,Brown,B,Street 1988,City 1988,State 1988,121988,,,
E1989,Jennifer,Taylor,D,Street 1989,City 1989,State 1989,121989,,,
E1990,Joseph,Davis,B,Street 1990,City 1990,State 1990,121990,,,
E1991,Robert,Miller,L,Street 1991,City 1991,State 1991,121991,,,
E1992,William,Jones,X,Street 1992,City 1992,State 1992,121992,,,
E1993,Paul,Davis,Z,Street 1993,City 1993,State 1993,121993,,,
E1994,John,Wilson,E,Street 1994,City 1994,State 1994,121994,,,
E1995,Barbara,Williams,T,Street 1995,City 1995,State 1995,121995,,,
E1996,Christopher,Davis,Y,Street 1996,City 1996,State 1996,121996,,,
E1997,Mark,White,X,Street 1997,City 1997,State 1997,121997,,,
E1998,Jennifer,Smith,D,Street 1998,City 1998,State 1998,121998,,,
E1999,James,Smith,P,Street 1999,City 1999,State 1999,121999,,,
E2000,Michael,Taylor,W,Street 2000,City 2000,State 2000,122000,,,
E2001,Mary,Jackson,F,Street 2001,City 2001,State 2001,122001,,,
E2002,Linda,Garcia,J,Street 2002,City 2002,State 2002,122002,,,
E2003,Patricia,Harris,R,Street 2003,City 2003,State 2003,122003,,,
E2004,Thomas,Thompson,A,Street 2004,City 2004,State 2004,122004,,,
E2005,Barbara,Anderson,D,Street 2005,City 2005,State 2005,122005,,,
E2006,Joseph,Williams,L,Street 2006,City 2006,State 2006,122006,,,
E2007,Richard,Smith,C,Street 2007,City 2007,State 2007,122007,,,
E2008,David,Smith,D,Street 2008,City 2008,State 2008,122008,,,
E2009,Charles,Johnson,D,Street 2009,City 2009,State 2009,122009,,,
E2010,John,Brown,Q,Street 2010,City 2010,State 2010,122010,,,
E2011,Elizabeth,Moore,F,Street 2011,City 2011,State 2011,122011,,,
E2012,Robert,Williams,C,Street 2012,City 2012,State 2012,122012,,,
E2013,Thomas,White,V,Street 2013,City 2013,State 2013,122013,,,
E2014,Michael,Brown,P,Street 2014,City 2014,State 2014,122014,,,
E2015,Michael,Martinez,D,Street 2015,City 2015,State 2015,122015,,,
E2016,David,Moore,H,Street 2016,City 2016,State 2016,122016,,,
E2017,Daniel,Martin,I,Street 2017,City 2017,State 2017,122017,,,
E2018,Mark,Johnson,I,Street 2018,City 2018,State 2018,122018,,,
E2019,James,Anderson,K,Street 2019,City 2019,State 2019,122019,,,
E2020,Michael,Jackson,P,Street 2020,City 2020,State 2020,122020,,,
E2021,Daniel,Anderson,A,Street 2021,City 2021,State 2021,122021,,,
E2022,Jennifer,White,D,Street 2022,City 2022,State 2022,122022,,,
E2023,John,Jones,W,Street 2023,City 2023,State 2023,122023,,,
E2024,Elizabeth,Miller,C,Street 2024,City 2024,State 2024,122024,,,
